"borough","business","stars","plus_code","address","latitude","longitude"
"",NA,4,"G3QJ+C2","17 Station Parade, Barking IG11 8E",NA,NA
"Day Lewis Pharmacy Broad Str","Day Lewis Pharmacy Broad Street",2.8,"G5P2+3G","151, Broad St, Dagenham RM10 9H",NA,NA
"Thomas Pharmacy & Travel Clinic Yellow Fever Cen","Thomas Pharmacy & Travel Clinic Yellow Fever Centre",4.6,"G3PJ+RC","19 Ripple Rd, Barking IG11 7N",NA,NA
"Day Lewis Pharmacy Bark","Day Lewis Pharmacy Barking",3.2,"G3PV+8M","359 Ripple Rd, Barking IG11 9P",NA,NA
"David Lewis Pharm","David Lewis Pharmacy",NA,"H42J+H2","16 Porters Ave, Dagenham RM8 2A",NA,NA
"Britannia Pharm","Britannia Pharmacy",3,"G3WV+5F","15, Faircross Parade, Upney Ln, Barking IG11 8U",NA,NA
"",NA,3.6,"G3QJ+H7","35 Station Parade, Barking IG11 8E",NA,NA
"Britannia Pharm","Britannia Pharmacy",3.1,"G4H3+6H","Thames View Health Centre, Thames View Estate, Barking IG11 0L",NA,NA
"Sandbern Pharm","Sandbern Pharmacy",3.9,"H46F+V9","705 Green Ln, Dagenham RM8 1U",NA,NA
"Valence Pharm","Valence Pharmacy",4.6,"H45J+H7","453 Becontree Ave, Dagenham RM8 3U",NA,NA
"Asda Dagenham Superst","Asda Dagenham Superstore",3.6,"G4JR+4M","Merrielands Cres, Dagenham RM9 6S",NA,NA
"Britannia Pharm","Britannia Pharmacy",4.3,"H562+F5","420 Wood Ln, Dagenham RM10 7F",NA,NA
"Hedgemans Pharm","Hedgemans Pharmacy",3.9,"G4QH+J8","438 Hedgemans Rd, Dagenham RM9 6B",NA,NA
"Maplestead Pharmacy & Travel Vaccination Cli","Maplestead Pharmacy & Travel Vaccination Clinic",4.9,"G4M6+W8","454 Lodge Ave, Dagenham RM9 4Q",NA,NA
"Mayors Chem","Mayors Chemist",4,"G3MP+MH","214 Ripple Rd, Barking IG11 7P",NA,NA
"ASDA Pharm","ASDA Pharmacy",2.6,"G4JV+22","Merrielands Cres, Dagenham RM9 6S",NA,NA
"David Lewis Pharm","David Lewis Pharmacy",3.8,"H42J+H2","16 Porters Ave, Dagenham RM8 2A",NA,NA
"Britannia Pharm","Britannia Pharmacy",3,"G3QX+HF","Barking Hospital Rd, Upney Ln, Barking IG11 9L",NA,NA
"Alvin Rose Pharm","Alvin Rose Pharmacy",3.2,"H427+HR","606 Longbridge Rd, Dagenham RM8 2A",NA,NA
"LloydsPharm","LloydsPharmacy",2.1,"H43R+QV","281 Wood Ln, Dagenham RM8 3N",NA,NA
"Tesco Pharm","Tesco Pharmacy",3.6,"G3PC+G9","Highbridge Rd, Barking IG11 7B",NA,NA
"Nuchem Pharm","Nuchem Pharmacy",3.8,"H46F+R4","778 Green Ln, Dagenham RM8 1Y",NA,NA
"Britannia Pharm","Britannia Pharmacy",4.4,"G4C5+97","Unit 2, Leslie Hitchcock House, 21 Minter Rd, Barking IG11 0T",NA,NA
"Britannia Pharm","Britannia Pharmacy",3.4,"G4R7+GF","453 Porters Ave, Dagenham RM9 4N",NA,NA
"Hannigan Pharm","Hannigan Pharmacy",4.3,"H43F+7X","240 Bennett's Castle Ln, Dagenham RM8 3U",NA,NA
"Oxlow Pharmacy & Travel Cli","Oxlow Pharmacy & Travel Clinic",4.5,"H523+JC","217 Oxlow Ln, Dagenham RM10 7Y",NA,NA
"Kry-Ba Pharm","Kry-Ba Pharmacy",2.9,"G4JW+VF","21 Goresbrook Rd., Dagenham RM9 6X",NA,NA
"Day Lewis Pharmacy Dagenham, Royal Par","Day Lewis Pharmacy Dagenham, Royal Parade",3.8,"G5Q5+X4","2, Royal Parade, Church St, Dagenham RM10 9X",NA,NA
"Heathway Pharmacy & Travel Clinic(Including Yellow Fever,Hajj and Umrah Vacci","Heathway Pharmacy & Travel Clinic(Including Yellow Fever,Hajj and Umrah Vaccine)",4.6,"G5P2+2H","151, Broad St, Dagenham RM10 9H",NA,NA
"Day Lewis Pharmacy Dagenham, Bead","Day Lewis Pharmacy Dagenham, Beadles",2.6,"G5V8+29","7, Beadles Parade, Rainham Rd S, Dagenham RM10 8Y",NA,NA
"Superdrug Pharm","Superdrug Pharmacy",5,"G3QJ+75","13 Station Parade, Barking IG11 8D",NA,NA
"Talati Pharm","Talati Pharmacy",3.2,"G4VX+36","282 Heathway, Essex, Dagenham RM10 8Q",NA,NA
"Tesco Superst","Tesco Superstore",4.1,"G3PC+G8","Tesco Stores Ltd, Highbridge Rd, Barking IG11 7B",NA,NA
"Specialist Pharm","Specialist Pharmacy",4.7,"G5W9+W9","Londoneast-UK Business & Technical Park, Yew Tree Avenue, Dagenham, London RM10 7F",NA,NA
"Brooks Pharmacy Wood L","Brooks Pharmacy Wood Lane",3,"H43R+QV","281 Wood Ln, Dagenham RM8 3N",NA,NA
"Ghirs Pharm","Ghirs Pharmacy",3.9,"G3M6+FR","426 Barking Rd, London E6 2S",NA,NA
"Ghirs Pharm","Ghirs Pharmacy",3.9,"G3M6+FR","426 Barking Rd, London E6 2S",NA,NA
"Pharmacy Repub","Pharmacy Republic",4.1,"G2JV+FV","138 Barking Rd, London E6 3B",NA,NA
"Andrew B","Andrew Bass",4.4,"H46W+9M","1148 Green Ln, Dagenham RM8 1B",NA,NA
"Waller Pharm","Waller Pharmacy",4.5,"G4RX+V2","279 Heathway, Dagenham RM9 5A",NA,NA
"Goodmayes Pharm","Goodmayes Pharmacy",4,"H479+8C","2, Brooks Parade, Green Ln, Ilford IG3 9R",NA,NA
"Supercare Pharm","Supercare Pharmacy",2.7,"H4CR+Q4","200 High Rd, Romford RM6 6L",NA,NA
"Britannia Pharm","Britannia Pharmacy",3.7,"H4CQ+V7","169 High Rd, Romford RM6 6N",NA,NA
"Woodlands Pharm","Woodlands Pharmacy",3.9,"H32H+XR","119 Hampton Rd, Ilford IG1 1P",NA,NA
"Britannia Pharm","Britannia Pharmacy",2.9,"H36X+8G","416 Green Ln, Seven Kings, Ilford IG3 9J",NA,NA
"Boots Pharm","Boots Pharmacy",3,"G3QH+4V","68 East St, Barking IG11 8E",NA,NA
"Britannia Pharm","Britannia Pharmacy",2.9,"G3WG+CQ","Loxford Polyclinic, 417 Ilford Ln, Ilford IG1 2S",NA,NA
"Britannia Pharm","Britannia Pharmacy",3.6,"H35M+JX","53 Green Ln, Ilford IG1 1X",NA,NA
"Crosstick Pharm","Crosstick Pharmacy",NA,"G4JC+F8","Rippleside Commercial Estate, Gurtek, Barking IG11 0R",NA,NA
"P & S Chem","P & S Chemist",4.1,"Reclamar","111 Ilford Ln, Ilford IG1 2R",NA,NA
"Wellbeing Pharmacy & Travel Cli","Wellbeing Pharmacy & Travel Clinic",4.6,"H4CH+7P","1207 High Rd, Romford RM6 4A",NA,NA
"Munro Pharmacy - East Ham | Photo & Printing Services | Perfumery & Gi","Munro Pharmacy - East Ham | Photo & Printing Services | Perfumery & Gifts",4.2,"G3M3+GC","7 High St N, London E6 1H",NA,NA
"",NA,3.6,"H58G+49","197 Rush Green Rd, Romford RM7 0J",NA,NA
"Well Pharm","Well Pharmacy",2,"H4MP+Q5","107 Rose Ln, Romford RM6 5N",NA,NA
"DP Pharm","DP Pharmacy",3.2,"H34G+J7","84 Albert Rd, Ilford IG1 1H",NA,NA
"",NA,3.9,"H5X7+R6","5 Clockhouse Ln, Romford RM5 3P",NA,NA
"Burdess Pharmacy ","Burdess Pharmacy Ltd",4,"G4QH+H9","438 Hedgemans Rd, Dagenham RM9 6B",NA,NA
"Eden Pharm","Eden Pharmacy",3.6,"H476+85","85 Goodmayes Rd, Ilford IG3 9U",NA,NA
"My Net Doc","My Net Doctor",3.9,"G3PC+V2","160 London Rd, Barking IG11 8B",NA,NA
"Cordeve Dispensing Chem","Cordeve Dispensing Chemist",3,"H4FG+66","70 Chadwell Heath Ln, Romford RM6 4N",NA,NA
"Boots Pharm","Boots Pharmacy",3,"G4RX+HG","17, The Mall, Heathway, Dagenham RM10 8R",NA,NA
"",NA,4,"G3P2+XP","152 High St N, London E6 2H",NA,NA
"Duncans Pharmacy + Travel Clinic + Yellow Fever Cen","Duncans Pharmacy + Travel Clinic + Yellow Fever Centre",3.9,"G2VX+JV","347 High St N, London E12 6P",NA,NA
"Kingsway Chem","Kingsway Chemist",2.3,"G3J2+XM","290 Barking Rd, London E6 3B",NA,NA
"Kingsway Chem","Kingsway Chemist",2.3,"G3J2+XM","290 Barking Rd, London E6 3B",NA,NA
"Blakeberry Pharmacy London - Alphega Pharm","Blakeberry Pharmacy London - Alphega Pharmacy",4.1,"G3J4+M6","9, 11 High St S, London E6 6E",NA,NA
"",NA,4.5,"H4FG+66","70 Chadwell Heath Ln, Romford RM6 4N",NA,NA
"Prime Pharm","Prime Pharmacy",4.1,"G3R2+69","234 High St N, London E12 6S",NA,NA
"Zadams Pharm","Zadams Pharmacy",3.1,"H485+MV","841 High Rd, Ilford IG3 8T",NA,NA
"Brooks Pharm","Brooks Pharmacy",3.5,"H5X7+PH","12 Chase Cross Rd, Romford RM5 3P",NA,NA
"Muhammad's Pharm","Muhammad's Pharmacy",3.9,"H333+36","829 Romford Rd, London E12 6E",NA,NA
"Solanki Pharm","Solanki Pharmacy",4.5,"G3V2+72","324 High St N, London E12 6S",NA,NA
"Catto Chemists: Pharmacy in Manor Park, East Lon","Catto Chemists: Pharmacy in Manor Park, East London",4.6,"G2WX+3R","388 High St N, London E12 6R",NA,NA
"Elm Park Pharm","Elm Park Pharmacy",4.5,"H52X+8M","212 Elm Park Ave, Hornchurch RM12 4S",NA,NA
"Elm Park Pharm","Elm Park Pharmacy",4.5,"H52X+8M","212 Elm Park Ave, Hornchurch RM12 4S",NA,NA
"Tesco Pharm","Tesco Pharmacy",3.3,"H486+GQ","822 High Rd, Romford RM6 4H",NA,NA
"Tesco Pharm","Tesco Pharmacy",3.3,"H486+GQ","822 High Rd, Romford RM6 4H",NA,NA
"MediRush Pharm","MediRush Pharmacy",4.6,"GW6R+MG","Shop No. 116, Railway Arches, Chapman St, London E1 2P",NA,NA
"Church Road Pharm","Church Road Pharmacy",2.3,"G3X3+5H","30 Church Rd, London E12 6A",NA,NA
"Compounding Chem","Compounding Chemist",NA,"G5W9+HQ","Business and Technical Park, HUB 30 LondonEast, Yew Tree Ave, Dagenham RM10 7F",NA,NA
"Goddard Veterinary Group, Bark","Goddard Veterinary Group, Barking",4.7,"G3RP+V3","115A Longbridge Rd, Barking IG11 8T",NA,NA
"Day Lewis Pharmacy Elm P","Day Lewis Pharmacy Elm Park",4.8,"G5XX+9Q","Elm Park, 6 Station Parade, Hornchurch RM12 5A",NA,NA
"Park Lane Pharm","Park Lane Pharmacy",4.6,"H5CR+QJ","1 Park Ln, Hornchurch, Romford RM11 1B",NA,NA
"Newmans Pharmacy , Yellow Fever Centre and Travel Clinic (Greenga","Newmans Pharmacy , Yellow Fever Centre and Travel Clinic (Greengate)",4.6,"G2GH+5F","524, 526 Barking Rd, London E13 8Q",NA,NA
"Pelton Chem","Pelton Chemist",2.9,"H377+28","81 Belgrave Rd, Ilford IG1 3A",NA,NA
"MYDIRECTPHARM","MYDIRECTPHARMACY",4.6,"H36M+M6","Redbridge Enterprise Centre, Thompson Cl, Ilford IG1 1T",NA,NA
"Sapphire Pharm","Sapphire Pharmacy",5,"H5X7+X9","21, 23 Clockhouse Ln, Romford RM5 3P",NA,NA
"Sapphire Pharm","Sapphire Pharmacy",5,"H5X7+X9","21, 23 Clockhouse Ln, Romford RM5 3P",NA,NA
"Burdess ","Burdess W H",3.8,"H5M7+2W","178 Mawney Rd, Romford RM7 8B",NA,NA
"Mim Pharm","Mim Pharmacy",4,"H5JG+HX","118 North St, Romford RM1 1D",NA,NA
"Rohpharm ","Rohpharm Ltd",3.3,"H369+Q6","149 Cranbrook Rd, Cranbrook, Ilford IG1 4P",NA,NA
"Weston Pharmacy - Alphega Pharm","Weston Pharmacy - Alphega Pharmacy",4.4,"G2CC+PC","329 Barking Rd, London E13 8E",NA,NA
"Well-Chem Pharm","Well-Chem Pharmacy",4.1,"H37X+Q6","641 High Rd, Seven Kings, Ilford IG3 8R",NA,NA
"ASDA Pharm","ASDA Pharmacy",3.1,"G385+34","Tollgate Rd, London E6 5J",NA,NA
"Newmans Pharmacy and Travel Clinic ( Abbey Ar","Newmans Pharmacy and Travel Clinic ( Abbey Arms)",4.6,"G2CC+RV","376 Barking Rd, London E13 8H",NA,NA
"Newmans Pharmacy and Travel Clinic ( Abbey Ar","Newmans Pharmacy and Travel Clinic ( Abbey Arms)",4.6,"G2CC+RV","376 Barking Rd, London E13 8H",NA,NA
"Clockwork Pharmacy & Travel Vaccination Cli","Clockwork Pharmacy & Travel Vaccination Clinic",4.5,"G2JP+4W","741 Barking Rd, London E13 9E",NA,NA
"Caremark Barking and Dagen","Caremark Barking and Dagenham",5,"G3PG+MP","Building Suite 201, 16 North St, Genoa, Barking IG11 8A",NA,NA
"Superdrug Pharm","Superdrug Pharmacy",2.2,"H369+3X","50 Cranbrook Rd, Cranbrook, Ilford IG1 4N",NA,NA
"Boots Pharm","Boots Pharmacy",1.8,"H35C+FG","119 High Rd, Ilford IG1 1D",NA,NA
"Plashet Pharm","Plashet Pharmacy",4.1,"G2QR+9V","169 Plashet Grove, London E6 1B",NA,NA
"Goddard Veterinary Group, Dagen","Goddard Veterinary Group, Dagenham",4.2,"H523+FQ","234 Oxlow Ln, Dagenham RM10 7Y",NA,NA
"Fairlop Pharm","Fairlop Pharmacy",3.6,"Amigable","87 High St, Ilford IG6 2A",NA,NA
"Frank Mays Pharm","Frank Mays Pharmacy",4,"G2JQ+4Q","30 Barking Rd, London E6 3B",NA,NA
"Boots Pharm","Boots Pharmacy",3.5,"G38J+QM","Unit 15, Gallions Reach Shopping Park, 3 Armada Wy., London E6 7E",NA,NA
"Boots Pharm","Boots Pharmacy",3,"G3P3+74","84 High St N, London E6 2H",NA,NA
"Bell Medipharm","Bell Medipharmacy",3.3,"H346+36","995 Romford Rd, London E12 5J",NA,NA
"Bell Medipharm","Bell Medipharmacy",3.3,"H346+36","995 Romford Rd, London E12 5J",NA,NA
"Blakeberry Pharmacy - 96 High Street So","Blakeberry Pharmacy - 96 High Street South",3,"G3G4+RC","96 High St S, London E6 3R",NA,NA
"Tesco Pharm","Tesco Pharmacy",4.7,"H58R+8M","300 Hornchurch Rd, Hornchurch RM11 1P",NA,NA
"Woodgrange Pharmacy Travel Clinic & Weight Loss Cen","Woodgrange Pharmacy Travel Clinic & Weight Loss Centre",4.5,"H22G+G5","116 Woodgrange Rd, London E7 0E",NA,NA
"Manor Park Pharm","Manor Park Pharmacy",4.9,"H22W+7Q","683 Romford Rd, London E12 5A",NA,NA
"Manor Park Pharm","Manor Park Pharmacy",4.9,"H22W+7Q","683 Romford Rd, London E12 5A",NA,NA
"Britannia Pharm","Britannia Pharmacy",3.8,"H3CW+R4","265 Aldborough Rd. S, Ilford IG3 8J",NA,NA
"Day Lewis Pharmacy Rainham, Rainham R","Day Lewis Pharmacy Rainham, Rainham Road",2.5,"G5HR+92","113 Rainham Rd, Rainham RM13 7Q",NA,NA
"Medina Pharmacy ","Medina Pharmacy Ltd",4.1,"G2QM+44","229 Plashet Rd, London E13 0Q",NA,NA
"Day Lewis Pharmacy Barkingside + Travel Cli","Day Lewis Pharmacy Barkingside + Travel Clinic",4.3,"H3JF+JQ","642 Cranbrook Rd, Ilford IG6 1H",NA,NA
"Ask A Pharmac","Ask A Pharmacist",NA,"H36J+GC","Redbridge Enterprise Centre, Mastermedicine Ltd, Unit 19, Ilford IG1 1T",NA,NA
"Day Lewis Pharmacy Forest G","Day Lewis Pharmacy Forest Gate",3.4,"G2VG+6H","79 Upton Ln, London E7 9P",NA,NA
"Tesco Esso Expr","Tesco Esso Express",3.3,"G4M4+96","Ripple Rd, Barking IG11 9P",NA,NA
"Greenfield Pharm","Greenfield Pharmacy",4.8,"JRW7+G9","Great N Rd, New Barnet, Barnet EN5 1E",NA,NA
"Mountford Pharm","Mountford Pharmacy",4.6,"MR2G+38","11 E Barnet Rd, New Barnet, Barnet EN4 8R",NA,NA
"Prima Pharm","Prima Pharmacy",4.1,"JQWP+V3","171 Bells Hill, Barnet EN5 2T",NA,NA
"Brand Russell Pharmacy & Barnet Travel Cli","Brand Russell Pharmacy & Barnet Travel Clinic",4.1,"JRVP+2M","280 E Barnet Rd, London, Barnet EN4 8T",NA,NA
"S V R Chem","S V R Chemist",3.7,"JRWM+R6","141, 147 E Barnet Rd, London, Barnet EN4 8Q",NA,NA
"Parry Jones Pharm","Parry Jones Pharmacy",4.6,"MQ3X+F7","61 High St, Chipping Barnet, Barnet EN5 5U",NA,NA
"PARKVIEW PHARMACY & TRAVEL CLINIC NORTH LONDON ENFIELD OAKWOOD SOUTHGATE BARNET TRAVEL N14 ","PARKVIEW PHARMACY & TRAVEL CLINIC NORTH LONDON ENFIELD OAKWOOD SOUTHGATE BARNET TRAVEL N14 4XA",4.8,"JVXC+JC","195 Bramley Rd, London N14 4X",NA,NA
"Sainsbur","Sainsbury's",3.9,"JRXH+PC","66 E Barnet Rd, London, Barnet EN4 8R",NA,NA
"Clair Turner Lyons down Barnet tomor","Clair Turner Lyons down Barnet tomorrow",NA,"MR2C+5H","20 Leicester Rd, Barnet EN5 5D",NA,NA
"Simmons Pharm","Simmons Pharmacy",3.5,"JVX2+CQ","111 Cockfosters Rd, Cockfosters, Barnet EN4 0D",NA,NA
"Barnet Hospi","Barnet Hospital",2.8,"MQ2P+54","Wellhouse Ln, Barnet EN5 3D",NA,NA
"Wilkinson Chem","Wilkinson Chemist",5,"MQ4X+J8","190 High St, Hadley, Barnet EN5 5S",NA,NA
"Numark Pharmac","Numark Pharmacist",1,"MP2W+V8","7 Howard Dr, Borehamwood WD6 2N",NA,NA
"Greena","Greenacre",4,"JVX2+GW","9 Station Parade, Barnet EN4 0D",NA,NA
"Feminine Pharm","Feminine Pharmacy",1,NA,"",NA,NA
"Bo","Boots",3.6,"MQ4X+49","142 High St, Hadley, Barnet EN5 5X",NA,NA
"Pyramid Pharmacy & Travel Cli","Pyramid Pharmacy & Travel Clinic",4.6,"JVW8+P3","73 Bramley Rd, London N14 4E",NA,NA
"LloydsPharm","LloydsPharmacy",2.6,"JR7R+23","209 Woodhouse Rd, London N12 9A",NA,NA
"Boots Pharm","Boots Pharmacy",3.7,"MQ4X+4C","142 High St, Hadley, Barnet EN5 5X",NA,NA
"Woodhouse Pharmacy & Travel Cli","Woodhouse Pharmacy & Travel Clinic",5,"JR7R+23","209 Woodhouse Rd, London N12 9A",NA,NA
"Woodhouse Pharmacy & Travel Cli","Woodhouse Pharmacy & Travel Clinic",5,"JR7R+23","209 Woodhouse Rd, London N12 9A",NA,NA
"Lipkin Chem","Lipkin Chemist",4.7,"JRJ9+5H","64 Totteridge Ln, London N20 8Q",NA,NA
"Bo","Boots",3.9,"JRJF+5P","1275 High Rd, London N20 9H",NA,NA
"Chase Farm Pharm","Chase Farm Pharmacy",2,"Amigable","Ground Floor, Chase Farm Hospital, 127 The Ridgeway, Enfield EN2 8J",NA,NA
"Chase Farm Pharm","Chase Farm Pharmacy",2,"Amigable","Ground Floor, Chase Farm Hospital, 127 The Ridgeway, Enfield EN2 8J",NA,NA
"Chase Farm Pharm","Chase Farm Pharmacy",2,"Amigable","Ground Floor, Chase Farm Hospital, 127 The Ridgeway, Enfield EN2 8J",NA,NA
"Hampden Square Pharmacy + Travel Clinic + Yellow Fever Cen","Hampden Square Pharmacy + Travel Clinic + Yellow Fever Centre",4,"JVJ4+WJ","14 Hampden Square, London N14 5J",NA,NA
"Green Light Pharmacy - Borehamw","Green Light Pharmacy - Borehamwood",4.8,"MP2Q+GF","148 Manor Way, Borehamwood WD6 1Q",NA,NA
"Green Light Pharmacy - Borehamw","Green Light Pharmacy - Borehamwood",4.8,"MP2Q+GF","148 Manor Way, Borehamwood WD6 1Q",NA,NA
"Oakleigh Pharmacy + Travel Clinic + Yellow Fever Cen","Oakleigh Pharmacy + Travel Clinic + Yellow Fever Centre",3.6,"JRGR+F6","253 Oakleigh Rd N, London N20 0T",NA,NA
"Clarins Simmons Pharmacy Bar","Clarins Simmons Pharmacy Barnet",NA,"JVX2+CQ","111 Cockfosters Rd, Barnet EN4 0D",NA,NA
"Chem","Chemist",5,"C5R2+V6","Bexley DA5 1L",NA,NA
"Warren Medipharm","Warren Medipharmacy",4.1,"C4RX+H4","24 Bexley High St, Bexley DA5 1A",NA,NA
"Osbon Pharmacy & Travel Cli","Osbon Pharmacy & Travel Clinic",4.3,"C5R2+V6","7, Bourne Parade, Bourne Rd, Bexley DA5 1L",NA,NA
"McQueen's Pharm","McQueen's Pharmacy",4.9,"C5MG+PV","B3, 3 Maplehurst Cl, Dartford DA2 7W",NA,NA
"Osbon Pharm","Osbon Pharmacy",4.1,"C4PG+99","24 Steynton Ave, Bexley DA5 3H",NA,NA
"Private Label Gym Suppleme","Private Label Gym Supplements",NA,"C5R2+J2","70 Bexley High St, Bexley DA5 1A",NA,NA
"Broadway Pharm","Broadway Pharmacy",4.4,"F44R+VP","172 Broadway, Bexleyheath DA6 7B",NA,NA
"Avery Pharmacy (Travel Vaccination & Weight Loss Clin","Avery Pharmacy (Travel Vaccination & Weight Loss Clinic)",4.9,"F32M+43","Eltham, 192 Bexley Rd, Avery Hill, London SE9 2P",NA,NA
"Bo","Boots",4.1,"F44W+76","33, The Mall, Broadway Shopping Centre, Bexleyheath DA6 7J",NA,NA
"Joydens Wood Pharm","Joydens Wood Pharmacy",4.6,"C5FC+CP","2, Birchwood parade, Woodside Dr, Dartford DA2 7N",NA,NA
"Bexley Vaccination Cli","Bexley Vaccination Clinic",5,"C5R2+V6","7 Bourne Rd, Bexley DA5 1L",NA,NA
"Feminine Pharm","Feminine Pharmacy",1,NA,"",NA,NA
"Buy Zopiclone Onl","Buy Zopiclone Online",5,"HPM5+2G","81 Lindsay Dr, Harrow HA3 0T",NA,NA
"McParland Pharm","McParland Pharmacy",2.4,"HQW4+V2","2 Heath Parade, Lanacre Avenue, Hendon Village NW9 5Z",NA,NA
"Brentmead Pharm","Brentmead Pharmacy",4.4,"GPWX+QP","136 Church Rd, London NW10 9N",NA,NA
"Sabel Chem","Sabel Chemist",3.8,"HQPH+JW","116 Brent St, London NW4 2D",NA,NA
"Pharmacy ","Pharmacy Nhs",4,"GQW2+X4","168 Church Rd, London NW10 9N",NA,NA
"Broadway Pharm","Broadway Pharmacy",3.8,"HQG6+VC","204 W Hendon Broadway, London NW9 7E",NA,NA
"Grossman Pharmacy & Travel Cli","Grossman Pharmacy & Travel Clinic",4.6,"HQ88+PF","6, Oxgate Court Parade, Coles Green Rd, London NW2 7E",NA,NA
"Heard Pharm","Heard Pharmacy",4.6,"HQPJ+55","94 Brent St, London NW4 2E",NA,NA
"Zaxgate Pharm","Zaxgate Pharmacy",3.9,"HQPJ+R3","Brent St, London NW4 2E",NA,NA
"Smart Care Pharm","Smart Care Pharmacy",3,"HP68+PM","110 Wembley Park Drive Wembley Park Wembley, Greater, London HA9 8H",NA,NA
"Leigh Pharmacy & Travel Cli","Leigh Pharmacy & Travel Clinic",3.8,"HPGQ+24","278 Church Ln, London NW9 8L",NA,NA
"Bo","Boots",4.1,"HQGF+PR","Shopping Centre, Brent Cross, Prince Charles Dr, London NW4 3F",NA,NA
"Signature Pharm","Signature Pharmacy",4.6,"GPFF+F2","Unit 9, Concord Business Centre, Concord Rd, London W3 0T",NA,NA
"Co-Op Pharm","Co-Op Pharmacy",5,"HPFP+FX","175 Church Ln, London NW9 8J",NA,NA
"Boots Pharm","Boots Pharmacy",5,"HQGG+JQ","Unit W1, Brent Cross Shopping Centre, Prince Charles Dr, Brent Cross, London NW4 3F",NA,NA
"Shri Pharmacy & Travel Cli","Shri Pharmacy & Travel Clinic",4.5,"HPMC+XP","511 Kingsbury Rd, London NW9 9E",NA,NA
"Wembley Pharm","Wembley Pharmacy",4.3,"GPR2+FV","Middlesex House, 183 Ealing Rd, Wembley HA0 4L",NA,NA
"Tesco Pharm","Tesco Pharmacy",3,"HP3V+HW","Great Central Way, Neasden, London NW10 0T",NA,NA
"Gimmack Pharmacy + Travel Clinic + Yellow Fever Cen","Gimmack Pharmacy + Travel Clinic + Yellow Fever Centre",4.3,"HQ4M+PP","177 Cricklewood Broadway, London NW2 3H",NA,NA
"The Hyde Pharm","The Hyde Pharmacy",3.8,"Amigable","213 Edgware Rd, London NW9 6L",NA,NA
"Frank Wreford Pharmacy & Travel Cli","Frank Wreford Pharmacy & Travel Clinic",4.1,"HQ52+G9","234 Neasden Ln, Neasden, London NW10 0A",NA,NA
"Health First Pharm","Health First Pharmacy",3.7,"HP68+QM","95 Wembley Park Dr, London HA9 8H",NA,NA
"John Wilson Chem","John Wilson Chemist",2.7,"HQJC+XG","19 Vivian Ave, London NW4 3U",NA,NA
"Globe Pharm","Globe Pharmacy",3.9,"HQ36+3F","78 Burnley Rd, Brent Park, London NW10 1E",NA,NA
"Craig Thomson Pharm","Craig Thomson Pharmacy",4.7,"GQXH+86","72 Walm Ln, London NW2 4R",NA,NA
"Clockwork Pharmacy & Travel Vaccination Cli","Clockwork Pharmacy & Travel Vaccination Clinic",4.2,"HP5X+X7","285 Neasden Ln, Brent Park, London NW10 1Q",NA,NA
"Churchills Pharm","Churchills Pharmacy",4.5,"HMMP+85","207 Kenton Rd, Harrow HA3 0H",NA,NA
"Hendon Pharm","Hendon Pharmacy",4.1,"HQM9+3V","52 Vivian Ave, London NW4 3X",NA,NA
"Day Lewis Pharmacy Kilburn High Rd + Travel Cli","Day Lewis Pharmacy Kilburn High Rd + Travel Clinic",3.1,"GQVX+9X","273 Kilburn High Rd, London NW6 7J",NA,NA
"Peace Pharm","Peace Pharmacy",4,"HP65+X3","14 The Broadway, Wembley HA9 8J",NA,NA
"Jade Pharmacy (Kingsbury) & Travel Cli","Jade Pharmacy (Kingsbury) & Travel Clinic",3.8,"HPMC+W9","533 Kingsbury Rd, Kingsbury Circle, London NW9 9E",NA,NA
"ASDA Pharm","ASDA Pharmacy",3.1,"HP7F+VP","Forty Ln, Wembley HA9 9E",NA,NA
"Jallas Pharm","Jallas Pharmacy",4.6,"GP9M+GJ","313 Horn Ln, London W3 0B",NA,NA
"Health Pharm","Health Pharmacy",4.6,"Amigable","122 Windermere Ave, Wembley HA9 8R",NA,NA
"Jade Pharmacy (Wembley) & Travel Cli","Jade Pharmacy (Wembley) & Travel Clinic",4.4,"GPV3+V5","204 Ealing Rd, Wembley HA0 4Q",NA,NA
"Jade Pharmacy (Wembley) & Travel Cli","Jade Pharmacy (Wembley) & Travel Clinic",4.4,"GPV3+V5","204 Ealing Rd, Wembley HA0 4Q",NA,NA
"Jade Pharmacy (Wembley) & Travel Cli","Jade Pharmacy (Wembley) & Travel Clinic",4.4,"GPV3+V5","204 Ealing Rd, Wembley HA0 4Q",NA,NA
"Catto Pharm","Catto Pharmacy",3.9,"GQP3+CG","79 High St, London NW10 4N",NA,NA
"Hyperchem Pharmacy & Travel Cli","Hyperchem Pharmacy & Travel Clinic",4.2,"GQMW+Q3","34 Salusbury Rd, London NW6 6N",NA,NA
"Click Health Pharmacy (West London) | Delivering Medicine in Minu","Click Health Pharmacy (West London) | Delivering Medicine in Minutes",4.3,"GMPM+HV","Sabichi House, London UB6 7J",NA,NA
"R & C Pharmacy - Travel, Weight Loss and Earwax Removal Cli","R & C Pharmacy - Travel, Weight Loss and Earwax Removal Clinic",4.8,"GQXG+5C","5A Walm Ln, London NW2 5S",NA,NA
"Rasons Pharm","Rasons Pharmacy",4.6,"HP37+6G","323 Harrow Rd, Wembley HA9 6B",NA,NA
"Morrisons Pharm","Morrisons Pharmacy",3.5,"HPV7+8M","Honeypot Ln, London NW9 6R",NA,NA
"Collins Pharmacy and Travel Cli","Collins Pharmacy and Travel Clinic",3.4,"HPW4+53","9 Queensbury Circle Parade, Stanmore HA7 1E",NA,NA
"Jade Pharmacy Alper","Jade Pharmacy Alperton",4.4,"GPR2+MR","282 Ealing Rd, Wembley HA0 4L",NA,NA
"Dubison Pharm","Dubison Pharmacy",4.4,"GQW2+W5","168 Church Rd, London NW10 9N",NA,NA
"Karepack Pharmacy - London (Wembl","Karepack Pharmacy - London (Wembley)",4.5,"HP72+R8","Osram Rd, 11 East Ln, Wembley HA9 7N",NA,NA
"Wellcare Pharm","Wellcare Pharmacy",4.7,"HPPC+6V","Alpha House, 552 Kingsbury Rd, London NW9 9H",NA,NA
"Tesco Petrol Stat","Tesco Petrol Station",4.1,"HP3R+RG","Tesco Stores Ltd, Great Central Way, London NW10 0T",NA,NA
"Alpha Pharm","Alpha Pharmacy",4.2,"HPPX+V9","193 Edgware Rd, London NW9 6L",NA,NA
"The Harrow Pharm","The Harrow Pharmacy",3.9,"HMP9+Q3","73 Station Rd, Harrow HA1 2T",NA,NA
"Paster Pharm","Paster Pharmacy",3.9,"HPC4+96","212 Preston Rd, Wembley HA9 8P",NA,NA
"Well Pharm","Well Pharmacy",3.6,"HPFQ+G2","Kingsbury, 175 Church Ln, London NW9 8J",NA,NA
"Shivakem Pharm","Shivakem Pharmacy",5,"HM6J+V5","Shivakem Pharmacy, 12A Court Parade, North Wembley, Wembley HA0 3H",NA,NA
"Crystal Pharm","Crystal Pharmacy",3.8,"HM2V+2J","116 Chaplin Rd, Wembley HA0 4U",NA,NA
"Rushton Pharmacy Harrow - Travel Clinic & Vaccination Cli","Rushton Pharmacy Harrow - Travel Clinic & Vaccination Clinic",4.7,"HPF4+33","277 Preston Rd, Harrow HA3 0P",NA,NA
"Optipharm Pharmacy & Optici","Optipharm Pharmacy & Opticians",2.7,"HP7C+MQ","29 Bridge Rd, Wembley Park, Wembley HA9 9A",NA,NA
"CK Pharm","CK Pharmacy",4.6,"HM4M+6J","820 Harrow Rd, Wembley HA0 3E",NA,NA
"ASDA Pharm","ASDA Pharmacy",3.2,"GPHH+FW","20 Western Rd, London NW10 7L",NA,NA
"Serena Pharm","Serena Pharmacy",5,"GPQX+HH","7, Library Parade, Craven Park Rd, London NW10 8S",NA,NA
"Serena Pharm","Serena Pharmacy",5,"GPQX+HH","7, Library Parade, Craven Park Rd, London NW10 8S",NA,NA
"Monks Chem","Monks Chemist",4.3,"GPWG+Q5","70 Harrow Rd, Wembley HA9 6P",NA,NA
"Rightcare Pharm","Rightcare Pharmacy",5,"GQP4+VP","29 Park Parade, London NW10 4J",NA,NA
"Sudbury Court Pharm","Sudbury Court Pharmacy",4.9,"HM8H+M9","221 Watford Rd, Harrow HA1 3U",NA,NA
"Pharmaelite Pharm","Pharmaelite Pharmacy",5,"HM7X+6R","Courtenay House, 10 Courtenay Rd, Wembley HA9 7N",NA,NA
"G Lowe Pharm","G Lowe Pharmacy",4,"HM7V+2R","203 East Ln, Wembley HA0 3N",NA,NA
"RJ<U+2019>s Pharm","RJ<U+2019>s Pharmacy",4.1,"GPV3+Q5","210 Ealing Rd, Wembley HA0 4Q",NA,NA
"Watmans Pharm","Watmans Pharmacy",3.7,"GMRM+29","Hillview Surgery, 179 Bilton Rd, Perivale, Greenford UB6 7H",NA,NA
"Andres Pharm","Andres Pharmacy",4.4,"HPC4+W3","261 Preston Rd, Harrow HA3 0P",NA,NA
"Wellcare Pharm","Wellcare Pharmacy",3.5,"GVX5+XG","321 Kentish Town Rd, London NW5 2T",NA,NA
"The Brent Pharm","The Brent Pharmacy",4.2,"C6RJ+QH","15 The Brent, Dartford DA1 1Y",NA,NA
"Brent Pharm","Brent Pharmacy",4.8,"FMMV+C4","214 High St, Brentford TW8 8A",NA,NA
"K L Pharm","K L Pharmacy",3.4,"HMWP+8V","229 Kenton Ln, Harrow HA3 8R",NA,NA
"BRIGHT HEALTH PHARM","BRIGHT HEALTH PHARMACY",4.7,"HM26+98","1318 Greenford Rd, Greenford UB6 0H",NA,NA
"Anytime Pharm","Anytime Pharmacy",1,"HM6J+V5","12A Court Parade, North Wembley, Wembley HA0 3H",NA,NA
"Niks Pharm","Niks Pharmacy",3.4,"GPR2+MR","282 Ealing Rd, Wembley HA0 4L",NA,NA
"Tesco Ex","Tesco Extra",3.9,"HP3V+JW","Tesco Stores Ltd, Great Central Way, London NW10 0T",NA,NA
"Medic","Medico2u",5,"medico2u.co.uk","medico2u.co.u",NA,NA
"Ealing Pharmacy & Travel Cli","Ealing Pharmacy & Travel Clinic",3.2,"GMGP+CM","157 Pitshanger Ln, London W5 1R",NA,NA
"Overton & Pickup Pharm","Overton & Pickup Pharmacy",2.1,"HMPV+QG","Kenton Park Parade, Kenton Rd, Harrow HA3 8D",NA,NA
"Keencare Pharmacy - Har","Keencare Pharmacy - Harrow",3.9,"HMJ7+3R","18 College Rd, Harrow HA1 1B",NA,NA
"Temple Pharmacy & Chiropody Cli","Temple Pharmacy & Chiropody Clinic",4.7,"GMGP+HQ","110 Pitshanger Ln, London W5 1Q",NA,NA
"Boots Pharm","Boots Pharmacy",5,"HP33+7V","500 High Rd, Wembley HA9 7B",NA,NA
"Asda Wembley Superst","Asda Wembley Superstore",3.7,"HP7F+WQ","Forty Ln, Wembley HA9 9E",NA,NA
"Tesco Pharm","Tesco Pharmacy",2.5,"GMMJ+GP","Hoover Bldg, Old, Western Ave, Greenford UB6 8D",NA,NA
"SmartCare Pharmacy ","SmartCare Pharmacy Ltd",4.2,NA,"020 8903 406",45.8097528,14.7425657445546
"Tesco Pharm","Tesco Pharmacy",3.8,"HMP8+GG","Station Rd, Harrow HA1 2T",NA,NA
"Day Lewis Pharmacy Kentish T","Day Lewis Pharmacy Kentish Town",3.8,"GVW5+89","126, Day Lewis, Kentish Town Rd, London NW1 9Q",NA,NA
"Stratwicks Pharm","Stratwicks Pharmacy",4.2,"HJ7W+RF","240 Northolt Rd, South Harrow, Harrow HA2 8D",NA,NA
"Local Pharmacy Onl","Local Pharmacy Online",4.6,"HV78+P2","39 Junction Rd, Archway, London N19 5Q",NA,NA
"St Johns Wood Pharm","St Johns Wood Pharmacy",3.4,"GRMH+HH","142 St John's Wood High St, London NW8 7S",NA,NA
"Boots Pharm","Boots Pharmacy",3.5,"HJ2X+HX","47a, 47B Oldfields Circus, Northolt UB5 4R",NA,NA
"Sandylight Pharmacy + Travel Clinic + Yellow Fever Cen","Sandylight Pharmacy + Travel Clinic + Yellow Fever Centre",4.2,"GRXW+QW","131 Queens Cres, London NW5 4E",NA,NA
"Sandylight Pharmacy + Travel Clinic + Yellow Fever Cen","Sandylight Pharmacy + Travel Clinic + Yellow Fever Centre",4.2,"GRXW+QW","131 Queens Cres, London NW5 4E",NA,NA
"Superdrug Pharm","Superdrug Pharmacy",4.7,"GRWF+2P","5 Harben Parade, Finchley Rd, South Hampstead, London NW3 6J",NA,NA
"Superdrug Pharm","Superdrug Pharmacy",1.5,"HMJ8+QM","297/301 Station Rd, Harrow HA1 2T",NA,NA
"House of Mistry Pharmacy & Travel Vaccination Clinic Hampst","House of Mistry Pharmacy & Travel Vaccination Clinic Hampstead",4.4,"HR3M+RJ","17 S End Rd, London NW3 2P",NA,NA
"Elite Pharm","Elite Pharmacy",5,"GMV3+4P","107, Stanford House, Station Approach, Oldfield Ln N, Greenford UB6 0A",NA,NA
"D H Roberts Pharm","D H Roberts Pharmacy",3.7,"HV46+PH","165 Fortess Rd, London NW5 2H",NA,NA
"Avviro Pharm","Avviro Pharmacy",5,"HJ7X+W7","Pentax House, S Hill Ave, Harrow HA2 0D",NA,NA
"Well Pharm","Well Pharmacy",2,"HV88+25","13 Junction Rd, Archway, London N19 5Q",NA,NA
"Fitzrovia Pharmacy (formerly Chel Pharma","Fitzrovia Pharmacy (formerly Chel Pharmacy)",4.4,"Amigable","173 Great Portland St, London W1W 5P",NA,NA
"Fitzrovia Pharmacy (formerly Chel Pharma","Fitzrovia Pharmacy (formerly Chel Pharmacy)",4.4,"Amigable","173 Great Portland St, London W1W 5P",NA,NA
"Fitzrovia Pharmacy (formerly Chel Pharma","Fitzrovia Pharmacy (formerly Chel Pharmacy)",4.4,"Amigable","173 Great Portland St, London W1W 5P",NA,NA
"Scotts Pharm","Scotts Pharmacy",3,"C248+C8","3 Widmore Rd, Bromley BR1 1R",NA,NA
"Caxton Pharm","Caxton Pharmacy",4.4,"C248+C8","3 Widmore Rd, Bromley BR1 1R",NA,NA
"Day Lewis Pharmacy Widm","Day Lewis Pharmacy Widmore",2.9,"C24P+65","195 Widmore Rd, Bromley BR1 2R",NA,NA
"Touchwood Pharmacy - Brom","Touchwood Pharmacy - Bromley",3.8,"C278+VQ","84A London Ln, Bromley BR1 4H",NA,NA
"Bo","Boots",4.1,"C248+7H","234, The Glades Shopping Centre, High St, Bromley BR1 1H",NA,NA
"Petts Wood Pharmacy + Travel Clinic+Covid&Flu Clin","Petts Wood Pharmacy + Travel Clinic+Covid&Flu Clinics",3.9,"93QF+C5","83 Queensway, Petts Wood, Orpington BR5 1D",NA,NA
"Scotts Pharm","Scotts Pharmacy",3.5,"C228+6W","7 High St, Bromley BR1 1L",NA,NA
"Day Lewis Pharmacy Brom","Day Lewis Pharmacy Bromley",3.3,"C2H7+37","443 Downham Way, Bromley BR1 5H",NA,NA
"Duncans Chemist -Travel Clinic Bromley - Get","Duncans Chemist -Travel Clinic Bromley - GetJab",4,"CXCX+8C","24 Bromley Hill, Bromley BR1 4J",NA,NA
"Bo","Boots",4.1,"C228+X8","81 High St, Bromley BR1 1J",NA,NA
"Superd","Superdrug",4.2,"C238+9Q","67 The Glades Shopping Centre, High St, Bromley BR1 1D",NA,NA
"Browne's Chem","Browne's Chemist",3.7,"CXFW+HM","483 Bromley Rd, Bromley BR1 4P",NA,NA
"Boots Pharm","Boots Pharmacy",3.9,"C2CC+88","125 Burnt Ash Ln, Bromley BR1 5A",NA,NA
"Day Lewis Pharmacy Down","Day Lewis Pharmacy Downham",3.3,"CXFW+VF","467 Bromley Rd, Bromley BR1 4P",NA,NA
"Day Lewis Pharmacy Ha","Day Lewis Pharmacy Hayes",2.8,"92H6+29","5 Station Approach Hayes, Hayes, Bromley BR2 7E",NA,NA
"Day Lewis Pharmacy Ha","Day Lewis Pharmacy Hayes",2.8,"92H6+29","5 Station Approach Hayes, Hayes, Bromley BR2 7E",NA,NA
"Vantage Pharm","Vantage Pharmacy",4,"CXHP+XV","108 Conisborough Cres, London SE6 2S",NA,NA
"Gordon Davie Chem","Gordon Davie Chemist",4.6,"92QX+XR","195 Southborough Ln, Bickley, Bromley BR2 8A",NA,NA
"Wallace Pring &","Wallace Pring & Co",2.3,"92RP+R7","40 Chatterton Rd, Bromley BR2 9Q",NA,NA
"Sainsbur","Sainsbury's",4,"C247+MQ","Walters Yard, Bromley BR1 1T",NA,NA
"Chislehurst Pharmacy & Travel Cli","Chislehurst Pharmacy & Travel Clinic",3.5,"C354+28","59 Chislehurst Rd, Chislehurst BR7 5N",NA,NA
"MediRush Pharm","MediRush Pharmacy",4.6,"GW6R+MG","Shop No. 116, Railway Arches, Chapman St, London E1 2P",NA,NA
"Boots Pharm","Boots Pharmacy",3.3,"92G6+VG","15 Station Approach, Hayes, Bromley BR2 7E",NA,NA
"Boots Pharm","Boots Pharmacy",3.3,"92G6+VG","15 Station Approach, Hayes, Bromley BR2 7E",NA,NA
"Grove Park Pharm","Grove Park Pharmacy",4.3,"C2JC+J9","344 Baring Rd, London SE12 0D",NA,NA
"Bo","Boots",NA,"C238+HJ","40, The Glades Shopping Centre, Bromley BR1 1D",NA,NA
"Bo","Boots",NA,"C238+HJ","40, The Glades Shopping Centre, Bromley BR1 1D",NA,NA
"Catford Pharmacy (under new manageme","Catford Pharmacy (under new management)",2.2,"CXRX+28","185 Torridon Rd, London SE6 1R",NA,NA
"Boots Pharm","Boots Pharmacy",4,"C248+7H","234, The Glades Shopping Centre, High St, Bromley BR1 1H",NA,NA
"Boots Pharm","Boots Pharmacy",4,"C248+7H","234, The Glades Shopping Centre, High St, Bromley BR1 1H",NA,NA
"Akasi Pharmacy (Beckenh","Akasi Pharmacy (Beckenham)",4.4,"CX4M+Q7","Peters Chemist, 15 Bromley Rd, Beckenham BR3 5N",NA,NA
"Mangal Pharmacy Vaccination Cen","Mangal Pharmacy Vaccination Centre",4.1,"F342+7F","136A Well Hall Rd, London SE9 6S",NA,NA
"Brook Pharm","Brook Pharmacy",4.8,"C2JJ+P7","109 Chinbrook Rd, London SE12 9Q",NA,NA
"Paydens Becken","Paydens Beckenham",3,"CX48+8M","401 Croydon Rd, Beckenham BR3 3P",NA,NA
"Park Langley Pharm","Park Langley Pharmacy",4.6,"9XXJ+WJ","90 Wickham Rd, Beckenham BR3 6Q",NA,NA
"Boots Pharm","Boots Pharmacy",NA,"C228+X8","81 High St, Bromley BR1 1J",NA,NA
"Beckenham Pharmacy, 171-173 High Str","Beckenham Pharmacy, 171-173 High Street",3.4,"CX4C+G4","173 High St, Beckenham BR3 1A",NA,NA
"Green Light Pharmacy - Bromley by ","Green Light Pharmacy - Bromley by Bow",3.6,"GXFP+H2","Health Centre, 2 Hannaford Walk St Andrews, 2 Hannaford Walk, London E3 3F",NA,NA
"Harris Chemist Grove P","Harris Chemist Grove Park",4.6,"C2JC+6C","372 Baring Rd, London SE12 0E",NA,NA
"Boots Pharm","Boots Pharmacy",3.3,"93QF+96","Queensway, Petts Wood, Orpington BR5 1D",NA,NA
"Well Pharm","Well Pharmacy",2.4,"C3H4+XV","2 The Mound, William Barefoot Dr, Coldharbour Estate, London SE9 3A",NA,NA
"Kamsons Pharm","Kamsons Pharmacy",3.8,"CW7P+8Q","17 Oakfield Rd, London SE20 8Q",NA,NA
"Lakewood Pharmacy / Yellow Fever and Travel Vaccination centre / Earwax remo","Lakewood Pharmacy / Yellow Fever and Travel Vaccination centre / Earwax removal",5,"9XGJ+Q5","108 High St, West Wickham BR4 0N",NA,NA
"Westchem Pharmacy - NHS Vaccination Centre, Travel Clinic and Yellow Fever Cen","Westchem Pharmacy - NHS Vaccination Centre, Travel Clinic and Yellow Fever Centre",4.8,"9XGP+M7","89 Station Rd, West Wickham BR4 0P",NA,NA
"Westchem Pharmacy - NHS Vaccination Centre, Travel Clinic and Yellow Fever Cen","Westchem Pharmacy - NHS Vaccination Centre, Travel Clinic and Yellow Fever Centre",4.8,"9XGP+M7","89 Station Rd, West Wickham BR4 0P",NA,NA
"Cambelle Chemi","Cambelle Chemists",4,"C2M3+W4","85 Boundfield Rd, London SE6 1P",NA,NA
"Coney Hall Pharmacy -Weight Loss Clinic & Ear Wax Removal Cli","Coney Hall Pharmacy -Weight Loss Clinic & Ear Wax Removal Clinic",4.8,"9292+PH","5, Coney Hall Parade, 5 Kingsway, West Wickham BR4 9J",NA,NA
"Woodlands Pharm","Woodlands Pharmacy",4.1,"FX2V+2V","4 Edwin Hall Pl, Hither Green Ln, London SE13 6R",NA,NA
"Blackwells Chemist & Travel Cli","Blackwells Chemist & Travel Clinic",4.4,"CX37+25","Blackwells Chemist & Travel Vaccinations, 245 Croydon Rd, Beckenham BR3 3P",NA,NA
"Stevens Pharmacy & Travel Cli","Stevens Pharmacy & Travel Clinic",4.5,"C3QC+FF","379 Footscray Rd, London SE9 2D",NA,NA
"LloydsPharm","LloydsPharmacy",2.3,"9XGJ+Q5","108 High St, West Wickham BR4 0N",NA,NA
"Rushey Green Pharm","Rushey Green Pharmacy",4.1,"CXXJ+RP","The Primary Care Centre, Hawstead Rd, London SE6 4J",NA,NA
"Crofton Pharmacy & Travel Cli","Crofton Pharmacy & Travel Clinic",4.5,"93HH+MQ","1 Place Farm Ave, Orpington BR6 8D",NA,NA
"Payd","Paydens",2.5,"93QG+V7","13 Station Square, Petts Wood, Orpington BR5 1L",NA,NA
"Mottingham Pharmacy + Weight Loss Clinic + Yellow Fever & Travel Vaccine Cen","Mottingham Pharmacy + Weight Loss Clinic + Yellow Fever & Travel Vaccine Centre",4.6,"C2PV+JX","73 Mottingham Rd, London SE9 4Q",NA,NA
"Boots Pharm","Boots Pharmacy",3.7,"CWGX+G7","55 Sydenham Rd, London SE26 5E",NA,NA
"Elmers Pharmacy + Travel Cli","Elmers Pharmacy + Travel Clinic",3.5,"9XR6+MX","172 Upper Elmers End Rd, Beckenham BR3 3D",NA,NA
"Touchwood Pharm","Touchwood Pharmacy",4,"CXH6+FV","363 Sydenham Rd, London SE26 5S",NA,NA
"Touchwood Pharm","Touchwood Pharmacy",4,"CXH6+FV","363 Sydenham Rd, London SE26 5S",NA,NA
"Widdicombe Chemist + Ear Wax Removal Clinic + Travel cli","Widdicombe Chemist + Ear Wax Removal Clinic + Travel clinic",4.9,"FX2V+7H","220 Hither Green Ln, London SE13 6R",NA,NA
"Lee Pharm","Lee Pharmacy",3.8,"C2X7+H7","19 Burnt Ash Hill, London SE12 0A",NA,NA
"CityDoc In-Pharmacy Travel Clinic, Brom","CityDoc In-Pharmacy Travel Clinic, Bromley",5,"C248+C8","Caxtons Pharmacy, 3 Widmore Rd, Bromley BR1 1R",NA,NA
"Well Pharm","Well Pharmacy",4.5,"F322+2Q","27 Court Yard, London SE9 5P",NA,NA
"Fishers Chem","Fishers Chemist",4.3,"9WVM+74","1 Enmore Rd, London SE25 5N",NA,NA
"Rey Pharmacy & Travel Cli","Rey Pharmacy & Travel Clinic",3.8,"C3M7+VR","735 Sidcup Rd, London SE9 3S",NA,NA
"Pyramid Pharm","Pyramid Pharmacy",2,"92R2+XR","121 Westmoreland Rd, Bromley BR2 0T",NA,NA
"Pyramid Pharm","Pyramid Pharmacy",2,"92R2+XR","121 Westmoreland Rd, Bromley BR2 0T",NA,NA
"JP Pharm","JP Pharmacy",4,"GVQ5+36","139 Camden High St, London NW1 7J",NA,NA
"Day Lewis Pharmacy Kentish T","Day Lewis Pharmacy Kentish Town",3.8,"GVW5+89","126, Day Lewis, Kentish Town Rd, London NW1 9Q",NA,NA
"Camden Pharmacy High Str","Camden Pharmacy High Street",4.3,"GVP6+27","21 Camden High St, London NW1 7J",NA,NA
"Wellcare Pharm","Wellcare Pharmacy",3.5,"GVX5+XG","321 Kentish Town Rd, London NW5 2T",NA,NA
"Bo","Boots",4.1,"GVM6+XH","8, 10 Camden High St, London NW1 0J",NA,NA
"Bo","Boots",3.8,"GVQ4+9X","175 Camden High St, London NW1 7J",NA,NA
"Camden Pharmacy Kentish T","Camden Pharmacy Kentish Town",4.6,"GRWX+P8","23 Malden Rd, London NW5 3H",NA,NA
"Biotech Pharm","Biotech Pharmacy",4.4,"GVR6+GH","96 Camden Rd, London NW1 9E",NA,NA
"pharmacypeartre","pharmacypeartreeuk",NA,"pharmacypeartreeuk.com","pharmacypeartreeuk.co",NA,NA
"Green Light Pharmacy - Mornington Cresc","Green Light Pharmacy - Mornington Crescent",4.1,"GVM6+MJ","275 Eversholt St, London NW1 1B",NA,NA
"Clockwork Pharmacy & Travel Vaccination Cli","Clockwork Pharmacy & Travel Vaccination Clinic",4.8,"clockworkpharmacy.com","clockworkpharmacy.co",NA,NA
"Boots Pharm","Boots Pharmacy",1,"GVQ4+9X","175 Camden High St, London NW1 7J",NA,NA
"Morrisons Pharm","Morrisons Pharmacy",4.3,"GVV2+55","Chalk Farm Rd, Chalk Farm, London NW1 8E",NA,NA
"Superd","Superdrug",3.4,"GVQ4+MR","201 Camden High St, London NW1 7B",NA,NA
"Aura Pharm","Aura Pharmacy",3.6,"GVX9+QX","21 Brecknock Rd, London N7 0B",NA,NA
"Baban Pharm","Baban Pharmacy",3.1,"GVHC+P6","34 Chalton St, London NW1 1J",NA,NA
"Clarins J P Pharmacy Camden T","Clarins J P Pharmacy Camden Town",NA,"GVQ5+37","139 Camden High St, London NW1 7J",NA,NA
"Allchin Pharmacy and Travel Cli","Allchin Pharmacy and Travel Clinic",4.1,"GRWQ+F5","28 England's Ln, Belsize Park, London NW3 4U",NA,NA
"Boots Pharm","Boots Pharmacy",3.4,"GVX5+4G","196 Kentish Town Rd, London NW5 2A",NA,NA
"Wellcare Pharm","Wellcare Pharmacy",3.9,"GVW5+89","126 Kentish Town Rd, London NW1 9Q",NA,NA
"MediRush Pharm","MediRush Pharmacy",4.6,"GW6R+MG","Shop No. 116, Railway Arches, Chapman St, London E1 2P",NA,NA
"Sandylight Pharmacy + Travel Clinic + Yellow Fever Cen","Sandylight Pharmacy + Travel Clinic + Yellow Fever Centre",4.2,"GRXW+QW","131 Queens Cres, London NW5 4E",NA,NA
"Primrose Pharm","Primrose Pharmacy",4,"GRRV+Q9","primrosehillpharmacy@gmail.com, 95 Regent's Park Rd, London NW1 8U",NA,NA
"Croydon Pharm","Croydon Pharmacy",3.1,"9W82+88","Pharmacy, 44 S End, Croydon CR0 1D",NA,NA
"A-Z Pharm","A-Z Pharmacy",4.6,"9VHW+GQ","20 London Rd, Croydon CR0 2T",NA,NA
"Day Lewis Pharmacy Thornton He","Day Lewis Pharmacy Thornton Heath",3.5,"9VQQ+5H","506 London Rd, Thornton Heath CR7 7H",NA,NA
"Mayday Community Pharm","Mayday Community Pharmacy",2.7,"9VQQ+6G","514 London Rd, London, Thornton Heath CR7 7H",NA,NA
"Larchwood Pharmacy and Travel Cli","Larchwood Pharmacy and Travel Clinic",4.5,"9WHG+X8","215 Lower Addiscombe Rd, Croydon CR0 6R",NA,NA
"McCoig Pharm","McCoig Pharmacy",4.8,"9W22+88","367 Brighton Rd, South Croydon CR2 6E",NA,NA
"NHS Pharm","NHS Pharmacy",NA,"9X26+WP","South Croydon CR2 8J",NA,NA
"Mona Pharmacy, Travel Clinic, Ear Wax Removal, Weight L","Mona Pharmacy, Travel Clinic, Ear Wax Removal, Weight Loss",3.6,"9XF3+X3","246 Wickham Rd, Croydon CR0 8B",NA,NA
"St Clare's Pharm","St Clare's Pharmacy",2.1,"9WF3+PF","Norfolk House, 21 George St, Croydon CR0 1L",NA,NA
"Shivas Pharmacy, Travel Clinic, Ear Wax Removal & Weight Management Cli","Shivas Pharmacy, Travel Clinic, Ear Wax Removal & Weight Management Clinic",4.7,"9VMR+CR","300 London Rd, Croydon CR0 2T",NA,NA
"Barkers Medipharm","Barkers Medipharmacy",3.9,"9VFW+G2","105 Church St, Croydon CR0 1R",NA,NA
"Asda Wallington Superst","Asda Wallington Superstore",4,"9VG9+MW","Marlowe Wy, Croydon CR0 4X",NA,NA
"Greenchem Pharm","Greenchem Pharmacy",4.8,"9WQX+96","20 Bywood Ave, Croydon CR0 7R",NA,NA
"Allcorn Chem","Allcorn Chemist",5,"9WJ4+PV","197 St James's Rd, Croydon CR0 2B",NA,NA
"Lloyds Pharm","Lloyds Pharmacy",1.4,"9VQQ+MF","Mayday House, Croydon University Hospital, 530 London Rd, Thornton Heath CR7 7Y",NA,NA
"Swan Pharm","Swan Pharmacy",2.9,"9W72+GP","119 S End, South Croydon, Croydon CR0 1B",NA,NA
"Swan Pharm","Swan Pharmacy",2.9,"9W72+GP","119 S End, South Croydon, Croydon CR0 1B",NA,NA
"Swan Pharm","Swan Pharmacy",2.9,"9W72+GP","119 S End, South Croydon, Croydon CR0 1B",NA,NA
"Osbon Pharm","Osbon Pharmacy",2.5,"9WF3+PF","Norfolk House, 21 George St, Croydon CR0 1L",NA,NA
"Lloyd George Pharm","Lloyd George Pharmacy",3.5,"9WP2+3X","65 Whitehorse Rd, Croydon CR0 2J",NA,NA
"Damson Pharm","Damson Pharmacy",5,NA,"damsonpharmacy.co",NA,NA
"Goldmantle Medipharm","Goldmantle Medipharmacy",3,"9X26+9J","2, The Forestdale Centre, Featherbed Ln, La, Croydon CR0 9A",NA,NA
"Medibank Pharm","Medibank Pharmacy",3.7,"9WMF+XV","263 Morland Rd, Croydon CR0 6H",NA,NA
"Shirley Pharm","Shirley Pharmacy",4,"9WGR+G5","175 Shirley Rd, Croydon CR0 8S",NA,NA
"Parade Medipharm","Parade Medipharmacy",3,"9VQH+6M","299A Thornton Rd, Croydon CR0 3E",NA,NA
"HealthExpr","HealthExpress",4.7,"9WH8+JG","106 Lower Addiscombe Rd, Croydon CR0 6A",NA,NA
"Lafford Chem","Lafford Chemist",4.5,"9V89+V6","8, The Broadway, Plough Ln, Beddington, Croydon CR0 4Q",NA,NA
"Lafford Chem","Lafford Chemist",4.5,"9V89+V6","8, The Broadway, Plough Ln, Beddington, Croydon CR0 4Q",NA,NA
"Croy-C","Croy-Chem",4.1,"9WJ6+5W","38 Lower Addiscombe Rd, Croydon CR0 6A",NA,NA
"The Health Coun","The Health Counter",NA,"9VGG+CP","The Health Counter, 5 Peterwood Way, Croydon CR0 4U",NA,NA
"United Pharm","United Pharmacy",4.5,"CW5R+MF","5, The Parade, Croydon Rd, London SE20 7A",NA,NA
"Aumex Pharm","Aumex Pharmacy",3.9,"8XRP+F8","Central Parade, New Addington, Croydon CR0 0J",NA,NA
"ASDA Pharm","ASDA Pharmacy",3.5,"9VG9+PW","Marlowe Wy, Croydon CR0 4X",NA,NA
"Fieldway Pharm","Fieldway Pharmacy",4.3,"9X4H+8M","3 Wayside, Fieldway, New Addington, Croydon CR0 9D",NA,NA
"Greenchem Pharm","Greenchem Pharmacy",4.3,"9X99+VW","15 Broom Rd, Croydon CR0 8N",NA,NA
"Superdrug Pharm","Superdrug Pharmacy",2.9,"9VGX+GV","Unit 2, 3 & 5, Whitgift Centre, N End, Croydon CR0 1U",NA,NA
"MediSpa pharm","MediSpa pharmacy",4.4,"9W24+W9","Unit 11a, Capital Business Centre, 22 Carlton Rd, South Croydon CR2 0B",NA,NA
"Smart City Pharm","Smart City Pharmacy",4.1,"9WQ5+GQ","8 Selhurst Rd, London SE25 5Q",NA,NA
"McCoigs Medipharm","McCoigs Medipharmacy",4.3,"9WFX+VW","143 Wickham Rd, Croydon CR0 8T",NA,NA
"Harris Chemi","Harris Chemists",4.6,"9X26+WP","Crossways Parade, Selsdon Park Rd, South Croydon, Croydon CR2 8J",NA,NA
"Superd","Superdrug",3.9,"9VGX+FV","Unit 2 , 3 & 5, N End, Croydon CR0 1U",NA,NA
"Dougans Chem","Dougans Chemist",4.6,"9X3M+3F","114 Headley Dr, New Addington, Croydon CR0 0Q",NA,NA
"Makepeace & Jackson Pharm","Makepeace & Jackson Pharmacy",2.7,"8WX4+77","7, Station Parade, Sanderstead Rd, South Croydon CR2 0P",NA,NA
"Day Lewis Pharmacy Support Off","Day Lewis Pharmacy Support Office",2.6,"9VGF+HM","2 Peterwood Way, Croydon CR0 4U",NA,NA
"TT Pharm","TT Pharmacy",5,"CW4P+J7","174 Croydon Rd, London SE20 7Y",NA,NA
"Tesco Pharm","Tesco Pharmacy",2.9,"9WX2+J9","32 Brigstock Rd, Thornton Heath CR7 8R",NA,NA
"Croydon Pharmacy Fi","Croydon Pharmacy First",NA,"9WX3+98","160 Gillett Rd, Croydon CR7 8S",NA,NA
"Glory Chem","Glory Chemist",4.6,"9V6G+RX","314 Stafford Rd, Wallington, Croydon CR0 4N",NA,NA
"Fishers Chem","Fishers Chemist",4.3,"9WVM+74","1 Enmore Rd, London SE25 5N",NA,NA
"Cranston Chemist - Travel Clinic and Registered Yellow Fever Cli","Cranston Chemist - Travel Clinic and Registered Yellow Fever Clinic",4.3,"9VXM+P4","951 London Rd, Thornton Heath CR7 6J",NA,NA
"Day Lewis Pharmacy Sels","Day Lewis Pharmacy Selsdon",3.2,"8WVP+7X","150 Addington Rd, Selsdon, South Croydon CR2 8L",NA,NA
"Boots Pharm","Boots Pharmacy",5,"9VGX+FR","18 Whitgift Centre, Croydon CR9 1S",NA,NA
"Day Lewis Pharmacy Sanderst","Day Lewis Pharmacy Sanderstead",2.9,"8WW8+WH","45 Elmfield Way, Surrey CR2 0E",NA,NA
"Thornton Heath Pharm","Thornton Heath Pharmacy",3.5,"9WX4+79","27 High St, Thornton Heath CR7 8R",NA,NA
"West Gate Pharm","West Gate Pharmacy",5,"9WQ5+HR","8 Selhurst Rd, London SE25 5Q",NA,NA
"Westbury Chemist -Travel Clinic & Prescriptions - Streatham, Croy","Westbury Chemist -Travel Clinic & Prescriptions - Streatham, Croydon",3.6,"CVPC+3J","90 Streatham High Rd, London SW16 1B",NA,NA
"Bids Chemist - Travel Cli","Bids Chemist - Travel Clinic",3.8,"CV6G+8R","1495 London Rd, Norbury, London SW16 4A",NA,NA
"Rays Chemist and Travel Cli","Rays Chemist and Travel Clinic",3.6,"CR5P+8R","167 London Rd, Mitcham CR4 2J",NA,NA
"Boots Pharm","Boots Pharmacy",4.1,"CR4P+GM","7 Majestic Way, Mitcham CR4 2J",NA,NA
"Paydens Becken","Paydens Beckenham",3,"CX48+8M","401 Croydon Rd, Beckenham BR3 3P",NA,NA
"Paydens Becken","Paydens Beckenham",3,"CX48+8M","401 Croydon Rd, Beckenham BR3 3P",NA,NA
"",NA,3.5,"9XX5+H2","119 Croydon Rd, Elmers End, Beckenham BR3 3R",NA,NA
"Blackwells Chemist & Travel Cli","Blackwells Chemist & Travel Clinic",4.4,"CX37+25","Blackwells Chemist & Travel Vaccinations, 245 Croydon Rd, Beckenham BR3 3P",NA,NA
"Boots Pharm","Boots Pharmacy",1,"9VHF+Q5","Valley Retail Park, 10 Daniell Way, Croydon CR0 4Y",NA,NA
"Fairlight Pharmacy & Travel Cli","Fairlight Pharmacy & Travel Clinic",4.4,"CV65+8Q","186 Rowan Rd, London SW16 5H",NA,NA
"Akasi Pharmacy and Travel Cli","Akasi Pharmacy and Travel Clinic",4.3,"9VX8+XW","14 S Lodge Ave, Mitcham CR4 1L",NA,NA
"Brigstock Pharm","Brigstock Pharmacy",2.9,"9VVR+V3","141 Brigstock Rd, Thornton Heath CR7 7J",NA,NA
"Wilkes Pharm","Wilkes Pharmacy",3.4,"CV3X+7H","105A Parchmore Rd, Thornton Heath CR7 8L",NA,NA
"Kamsons Pharm","Kamsons Pharmacy",3.8,"CW7P+8Q","17 Oakfield Rd, London SE20 8Q",NA,NA
"Day Lewis Pharmacy South Norw","Day Lewis Pharmacy South Norwood",2.7,"9WXF+98","3, The High Street The, High St, London SE25 6E",NA,NA
"Manor Chemist & Cli","Manor Chemist & Clinic",4.9,"CV24+56","Manor Chemist & Clinic, 341 Tamworth Ln, Mitcham CR4 1D",NA,NA
"Elmers Pharmacy + Travel Cli","Elmers Pharmacy + Travel Clinic",3.5,"9XR6+MX","172 Upper Elmers End Rd, Beckenham BR3 3D",NA,NA
"Fairgreen Pharm","Fairgreen Pharmacy",4.5,"CR4P+46","London Rd, Mitcham CR4 3N",NA,NA
"Norwood Hill Pharm","Norwood Hill Pharmacy",3,"CW57+W4","283 S Norwood Hill, London SE25 6D",NA,NA
"Anna Pharmacy Hackbridge (Formerly RK Pharma","Anna Pharmacy Hackbridge (Formerly RK Pharmacy)",4,"9RHV+9W","186 London Rd, Hackbridge, Wallington SM6 7F",NA,NA
"Tesco Pharm","Tesco Pharmacy",2.3,"8VPM+Q5","8 Purley Rd, Purley CR8 2H",NA,NA
"Hobbs Pharm","Hobbs Pharmacy",3.3,"8VRP+65","Ground Floor, War Memorial Hospital, 856 Brighton Rd, Purley CR8 2Y",NA,NA
"Orion Pharm","Orion Pharmacy",4.7,"8VQM+HH","939 Brighton Rd, Purley CR8 2B",NA,NA
"NORBURY PHARM","NORBURY PHARMACY",3.7,"CV2J+RJ","1102 London Rd, Norbury, London SW16 4D",NA,NA
"Day Lewis Pharmacy Wallington, Rounds","Day Lewis Pharmacy Wallington, Roundshaw",3.3,"9V38+98","Unit 4 Mollison Square, Wallington SM6 9D",NA,NA
"Day Lewis Pharmacy Wallington, Rounds","Day Lewis Pharmacy Wallington, Roundshaw",3.3,"9V38+98","Unit 4 Mollison Square, Wallington SM6 9D",NA,NA
"Day Lewis Pharmacy Wallington, Rounds","Day Lewis Pharmacy Wallington, Roundshaw",3.3,"9V38+98","Unit 4 Mollison Square, Wallington SM6 9D",NA,NA
"RXLive Pharm","RXLive Pharmacy",3.8,"9V56+HF","4 Chalice Cl, Wallington SM6 9R",NA,NA
"Macks Chem","Macks Chemist",2.4,"9XX5+HM","2 Eden Park Ave, Elmers End, Beckenham BR3 3H",NA,NA
"First Pharm","First Pharmacy",4.3,"9V52+84","108 Woodcote Rd, Wallington SM6 0L",NA,NA
"Superdrug Pharm","Superdrug Pharmacy",2.5,"CV6G+7Q","3, London Rd, Norbury, London SW16 4A",NA,NA
"Selhurst Pharm","Selhurst Pharmacy",5,"9WQ5+GQ","Londis Supermarket, 8 Selhurst Rd, London SE2",NA,NA
"Lakewood Pharmacy / Yellow Fever and Travel Vaccination centre / Earwax remo","Lakewood Pharmacy / Yellow Fever and Travel Vaccination centre / Earwax removal",5,"9XGJ+Q5","108 High St, West Wickham BR4 0N",NA,NA
"Eagle Chem","Eagle Chemist",4.6,"CV37+MC","301 Northborough Rd, London SW16 4T",NA,NA
"Superdrug Pharm","Superdrug Pharmacy",2.5,"9WX2+FH","Cobblers & Keys Ltd, 1-2 Cotford Rd, Brigstock Rd, Thornton Heath CR7 7J",NA,NA
"LloydsPharm","LloydsPharmacy",2.3,"9XGJ+Q5","108 High St, West Wickham BR4 0N",NA,NA
"Macks Pharm","Macks Pharmacy",3.1,"CW7X+R6","161 High St, London SE20 7Q",NA,NA
"Foxley Lane Pharm","Foxley Lane Pharmacy",4.9,"8VRG+F8","Foxley Ln, Purley CR8 3E",NA,NA
"Anna Pharmacy & Travel Cli","Anna Pharmacy & Travel Clinic",4.8,"9RMG+QG","398 Green Wrythe Ln, Carshalton SM5 1J",NA,NA
"Sefgrove Chemist- Travel Clinic and Yellow Fever Cen","Sefgrove Chemist- Travel Clinic and Yellow Fever Centre",4,"CW98+WV","5 Westow Hill, Norwood, London SE19 1T",NA,NA
"RXLive Pharm","RXLive Pharmacy",2.9,"9V56+HF","4 Chalice Cl, Wallington SM6 9R",NA,NA
"Copes Pharmacy + Travel Cli","Copes Pharmacy + Travel Clinic",4.1,"CV8F+MF","572 Streatham High Rd, London SW16 3Q",NA,NA
"Medipharm","Medipharmacy",4.3,"9R8Q+6J","High St, Carshalton SM5 3A",NA,NA
"Medipharm Pharm","Medipharm Pharmacy",2.8,"8WMF+FC","37 Limpsfield Rd, South Croydon CR2 9L",NA,NA
"Kamsons Pharm","Kamsons Pharmacy",4.1,"9RCH+MC","Wrythe Ln, Carshalton SM5 2R",NA,NA
"Tesco Expr","Tesco Express",3.3,"9VPQ+8R","Tesco Express, 369-373 London Rd, Croydon CR0 3P",NA,NA
"Coney Hall Pharmacy -Weight Loss Clinic & Ear Wax Removal Cli","Coney Hall Pharmacy -Weight Loss Clinic & Ear Wax Removal Clinic",4.8,"9292+PH","5, Coney Hall Parade, 5 Kingsway, West Wickham BR4 9J",NA,NA
"Pyramid Pharm","Pyramid Pharmacy",4.7,"CW7W+RX","4&5, COLMAN HOUSE, High St, London SE20 7E",NA,NA
"Pyramid Pharm","Pyramid Pharmacy",4.7,"CW7W+RX","4&5, COLMAN HOUSE, High St, London SE20 7E",NA,NA
"MediRush Pharm","MediRush Pharmacy",4.6,"GW6R+MG","Shop No. 116, Railway Arches, Chapman St, London E1 2P",NA,NA
"Westchem Pharmacy - NHS Vaccination Centre, Travel Clinic and Yellow Fever Cen","Westchem Pharmacy - NHS Vaccination Centre, Travel Clinic and Yellow Fever Centre",4.8,"9XGP+M7","89 Station Rd, West Wickham BR4 0P",NA,NA
"Kamsons Pharm","Kamsons Pharmacy",3.7,"9R4X+RJ","Jubilee Health Centre, Shotfield, Wallington SM6 0H",NA,NA
"e-medicina Pharm","e-medicina Pharmacy",5,"020","e-medicina.co.u",22.1357068,113.455282764624
"Cospharm Pharmacy & Travel Cli","Cospharm Pharmacy & Travel Clinic",3.5,"CRCQ+CQ","283 Mitcham Rd, London SW17 9J",NA,NA
"Nucare Hamlet Pharm","Nucare Hamlet Pharmacy",4.8,"CW8G+GX","45 Anerley Rd, London SE19 2A",NA,NA
"Saturn Pharm","Saturn Pharmacy",4.3,"CVF5+XV","75 Mitcham Ln, London SW16 6L",NA,NA
"Jhoots Pharm","Jhoots Pharmacy",2,"9RXC+FM","Ravensbury Ln, Mitcham CR4 4D",NA,NA
"Goddard Veterinary Group, Croy","Goddard Veterinary Group, Croydon",4.5,"9WMM+7Q","356 Lower Addiscombe Rd, Croydon CR0 7A",NA,NA
"Beckenham Pharmacy, 171-173 High Str","Beckenham Pharmacy, 171-173 High Street",3.4,"CX4C+G4","173 High St, Beckenham BR3 1A",NA,NA
"Day Lewis Pharmacy Toot","Day Lewis Pharmacy Tooting",4,"CRJV+3H","145 Franciscan Rd, London SW17 8D",NA,NA
"Kamson's Pharm","Kamson's Pharmacy",5,"9RFJ+6M","40 Green Wrythe Ln, Carshalton SM5 2D",NA,NA
"Touchwood Pharm","Touchwood Pharmacy",4.3,"CVJC+63","240 Streatham High Rd, London SW16 1B",NA,NA
"Portland Medical Cen","Portland Medical Centre",4.2,"9WVM+75","Portland Medical Centre, 184 Portland Rd, London SE25 4Q",NA,NA
"Boots Pharm","Boots Pharmacy",1,"8VQM+GQ","15 High St, Purley CR8 2A",NA,NA
"Boots Pharm","Boots Pharmacy",3.7,"CWGX+G7","55 Sydenham Rd, London SE26 5E",NA,NA
"Medipharm","Medipharmacy",2.5,"8VGX+6W","78 Godstone Rd, Kenley CR8 5A",NA,NA
"Harbs Pharm","Harbs Pharmacy",4.1,"FMWV+XR","193 S Ealing Rd, South Ealing, London W5 4R",NA,NA
"Lewis Pharmacy & Travel Cli","Lewis Pharmacy & Travel Clinic",3.9,"GM8X+76","36 Haven Grn, London W5 2N",NA,NA
"Mattock Lane Pharmacy & Travel Vaccination Cli","Mattock Lane Pharmacy & Travel Vaccination Clinic",4.6,"Amigable","8, St Johns Parade, Mattock Ln, London W13 9L",NA,NA
"Northfield Pharm","Northfield Pharmacy",4.9,"GM3J+V8","30 Northfield Ave, London W13 9R",NA,NA
"Ealing Pharmacy & Travel Cli","Ealing Pharmacy & Travel Clinic",3.2,"GMGP+CM","157 Pitshanger Ln, London W5 1R",NA,NA
"South Ealing Pharmacy & Travel clinic Plus Servi","South Ealing Pharmacy & Travel clinic Plus Services",4.6,"FMWV+WM","186 S Ealing Rd, London W5 4R",NA,NA
"Bo","Boots",3.9,"GM6W+RQ","36 Ealing Broadway Ctr, The Broadway, London W5 5J",NA,NA
"Drogeria UK Irys Cosmetics Polskie Kosmetyki I Suplementy & Witaminy & L","Drogeria UK Irys Cosmetics Polskie Kosmetyki I Suplementy & Witaminy & Leki",4.1,"GM6J+F8","158 Uxbridge Rd, London W13 8S",NA,NA
"Grosvenor Medipharm","Grosvenor Medipharmacy",3.8,"GM5F+VJ","99 Broadway, London W13 9B",NA,NA
"Ealing Travel Clinic (Northfield Pharma","Ealing Travel Clinic (Northfield Pharmacy)",5,"GM3J+V8","30 Northfield Ave, London W13 9R",NA,NA
"Temple Pharmacy & Chiropody Cli","Temple Pharmacy & Chiropody Clinic",4.7,"GMGP+HQ","110 Pitshanger Ln, London W5 1Q",NA,NA
"Superd","Superdrug",3.4,"GM7W+3M","Units 18/19, Broadway Shopping Centre, 101 Broad St Ave, London W5 5J",NA,NA
"Pyramid Pharmacy (midhur","Pyramid Pharmacy (midhurst)",4,"GM3F+C5","92 Elthorne Park Rd., London W7 2J",NA,NA
"Terry's Pharmacy & Travel Vaccination Cli","Terry's Pharmacy & Travel Vaccination Clinic",4.1,"GM7J+H3","4, Castle Hill Parade, The Avenue, London W13 8J",NA,NA
"Bramley Pharm","Bramley Pharmacy",4.9,"FMXP+9G","261 Northfield Ave, London W5 4U",NA,NA
"Bo","Boots",3.6,"GM6G+5J","68 Broadway, London W13 0S",NA,NA
"Boots Pharm","Boots Pharmacy",3.7,"GM6W+VQ","36, Ealing Broadway Centre, The Broadway, London W5 5J",NA,NA
"Richards Pharm","Richards Pharmacy",3.8,"GM2V+29","112 S Ealing Rd, London W5 4Q",NA,NA
"John Meg","John Megson",3.4,"GP85+QP","15, Queen's Parade, Hanger Ln, London W5 3H",NA,NA
"Ealing Hospi","Ealing Hospital",2.6,"GM53+29","601 Uxbridge Rd, Southall UB1 3H",NA,NA
"Tesco Expr","Tesco Express",4.5,"GM47+7Q","Hanwell Square, 75-117 Boston Rd, London W7 3S",NA,NA
"Boots Pharm","Boots Pharmacy",5,"GM6G+5J","68 Broadway, London W13 0S",NA,NA
"Cross Chem","Cross Chemist",4.5,"GPH4+QR","5 Royal Parade, Hanger Ln, London W5 1E",NA,NA
"Superdrug Pharm","Superdrug Pharmacy",2.7,"GM5F+VR","Inside Savers, 85-87 Broadway, London W13 9B",NA,NA
"Superdrug Pharm","Superdrug Pharmacy",2.7,"GM5F+VR","Inside Savers, 85-87 Broadway, London W13 9B",NA,NA
"Waitrose & Partn","Waitrose & Partners",4.1,"GM7H+69","2 Alexandria Rd, London W13 0N",NA,NA
"Sainsbur","Sainsbury's",4.1,"GM5F+MR","Melbourne Ave, London W13 9B",NA,NA
"Savers Health and Bea","Savers Health and Beauty",4.4,"GM5F+VR","87 Broadway, London W13 9B",NA,NA
"Feminine Pharm","Feminine Pharmacy",1,NA,"",NA,NA
"MedicPlus Health Cli","MedicPlus Health Clinic",4.5,"GM7J+J3","5 Castle Hill Parade, West Ealing W13 8J",NA,NA
"Church Pharm","Church Pharmacy",3.4,"GM57+HX","83 Uxbridge Rd, London W7 3S",NA,NA
"Remedy Pharm","Remedy Pharmacy",4.3,"GM77+X4","83 Greenford Ave, London W7 1L",NA,NA
"Wembley Pharm","Wembley Pharmacy",4.3,"GPR2+FV","Middlesex House, 183 Ealing Rd, Wembley HA0 4L",NA,NA
"Ealing Urgent Treatment Cen","Ealing Urgent Treatment Centre",2.2,"GM53+5H","Ealing Hospital, Uxbridge Rd, Southall UB1 3H",NA,NA
"Ealing Urgent Treatment Cen","Ealing Urgent Treatment Centre",2.2,"GM53+5H","Ealing Hospital, Uxbridge Rd, Southall UB1 3H",NA,NA
"Jade Pharmacy Alper","Jade Pharmacy Alperton",4.4,"GPR2+MR","282 Ealing Rd, Wembley HA0 4L",NA,NA
"Jade Pharmacy (Wembley) & Travel Cli","Jade Pharmacy (Wembley) & Travel Clinic",4.4,"GPV3+V5","204 Ealing Rd, Wembley HA0 4Q",NA,NA
"Hanwell Pharm","Hanwell Pharmacy",3,"GM68+37","Hanwell Health Centre, 20 Church Rd, London W7 1D",NA,NA
"Walkers Pharm","Walkers Pharmacy",4.4,"GP29+XG","6, The Broadway, Gunnersbury Ln, London W3 8H",NA,NA
"Polska Apteka UK - Lon","Polska Apteka UK - London",4.1,"GM7H+6F","2 Alexandria Rd, London W13 0N",NA,NA
"CEN4UK - CENFORCE 100 UK - CENFORCE 200","CEN4UK - CENFORCE 100 UK - CENFORCE 200 UK",4.3,"MX3C+H7","7 Dundee Way, Enfield EN3 7S",NA,NA
"LloydsPharm","LloydsPharmacy",1.6,"MW7C+4R","304 Baker St, Enfield EN1 3L",NA,NA
"Healthfare Chem","Healthfare Chemist",3.7,"MW2C+VJ","9 Colman Parade, Enfield EN1 1Y",NA,NA
"Pharmacy Xpress Health Clinic, Perfumery & Travel Cli","Pharmacy Xpress Health Clinic, Perfumery & Travel Clinic",4.8,"MX52+6X","228 Hertford Rd, Enfield EN3 5B",NA,NA
"Ronchetti Pharmacy & Travel Cli","Ronchetti Pharmacy & Travel Clinic",3.6,"MXC6+J2","619 Hertford Rd, Enfield EN3 6U",NA,NA
"Elgon Chem","Elgon Chemist",3.6,"JXX3+5F","291 High St, Enfield EN3 4D",NA,NA
"Bo","Boots",4.1,"MW28+CF","32, Shopping Precinct, Palace Gdns, Enfield EN2 6S",NA,NA
"Well Pharm","Well Pharmacy",3.2,"MW39+JM","66 Silver St, Enfield EN1 3E",NA,NA
"Electra Pharm","Electra Pharmacy",4.5,"JXR7+XG","170B South St, Enfield EN3 4G",NA,NA
"Tesco Pharm","Tesco Pharmacy",2.5,"JXX2+5W","288 High St, Ponders End, Enfield EN3 4D",NA,NA
"Whitaker's Pharm","Whitaker's Pharmacy",3.9,"MW56+CR","109 Chase Side, Enfield EN2 6N",NA,NA
"Haywards Pharm","Haywards Pharmacy",4.5,"JWRH+MV","10 Queen Anne's Pl, Enfield EN1 2P",NA,NA
"Well Pharm","Well Pharmacy",2.1,"MX84+2H","417 Hertford Rd, Enfield EN3 5P",NA,NA
"PARKVIEW PHARMACY & TRAVEL CLINIC NORTH LONDON ENFIELD OAKWOOD SOUTHGATE BARNET TRAVEL N14 ","PARKVIEW PHARMACY & TRAVEL CLINIC NORTH LONDON ENFIELD OAKWOOD SOUTHGATE BARNET TRAVEL N14 4XA",4.8,"JVXC+JC","195 Bramley Rd, London N14 4X",NA,NA
"Well Pharm","Well Pharmacy",3.4,"MX63+4F","257 Hertford Rd, Enfield EN3 5J",NA,NA
"Zara Pharmacy ","Zara Pharmacy NHS",3.9,"JXW3+M7","247 High St, Ponders End, Enfield EN3 4D",NA,NA
"Bo","Boots",3.7,"MW3R+CW","Enfield Retail Park, 2A Crown Rd, Enfield EN1 1T",NA,NA
"Capricorn Pharm","Capricorn Pharmacy",4.7,"MV3R+VF","16 Enfield Rd, Enfield EN2 7H",NA,NA
"Capricorn Pharm","Capricorn Pharmacy",4.7,"MV3R+VF","16 Enfield Rd, Enfield EN2 7H",NA,NA
"Shah ","Shah M K",2.4,"MXF6+VW","736 Hertford Rd, Enfield EN3 6P",NA,NA
"Ronchetti Pharm","Ronchetti Pharmacy",4.8,"MX9M+H8","68 Island Centre Way, Enfield EN3 6G",NA,NA
"Lamis Chem","Lamis Chemist",4.1,"JWP9+RJ","Village Rd, Enfield EN1 2H",NA,NA
"Baker Street Pharm","Baker Street Pharmacy",5,"MW7C+4R","304 Baker St, Enfield EN1 3L",NA,NA
"Green Lanes Pharm","Green Lanes Pharmacy",4.6,"JWM4+68","808 Green Lanes, London N21 2S",NA,NA
"Green Lanes Pharm","Green Lanes Pharmacy",4.6,"JWM4+68","808 Green Lanes, London N21 2S",NA,NA
"Pyramid Pharmacy & Travel Cli","Pyramid Pharmacy & Travel Clinic",4.6,"JVW8+P3","73 Bramley Rd, London N14 4E",NA,NA
"Boots Pharm","Boots Pharmacy",2.7,"MW3R+CX","Enfield Retail Park, 2A Crown Rd, Enfield EN1 1T",NA,NA
"Boots Pharm","Boots Pharmacy",2.7,"MW3R+CX","Enfield Retail Park, 2A Crown Rd, Enfield EN1 1T",NA,NA
"Boots Pharm","Boots Pharmacy",2.7,"MW3R+CX","Enfield Retail Park, 2A Crown Rd, Enfield EN1 1T",NA,NA
"Tesco Ex","Tesco Extra",3.6,"JXX2+5W","288 High St, Ponders End, Enfield EN3 4D",NA,NA
"VMS Pharm","VMS Pharmacy",4.5,"JWMW+FF","291 Hertford Rd, London N9 7E",NA,NA
"Reid's Pharm","Reid's Pharmacy",4.6,"JWMH+HG","1 Cambridge Terrace, Bury St W, London N9 9J",NA,NA
"Reid's Pharm","Reid's Pharmacy",4.6,"JWMH+HG","1 Cambridge Terrace, Bury St W, London N9 9J",NA,NA
"Reid's Pharm","Reid's Pharmacy",4.6,"JWMH+HG","1 Cambridge Terrace, Bury St W, London N9 9J",NA,NA
"Forest Pharm","Forest Pharmacy",4,"JWMW+FP","308A Hertford Rd, London N9 7H",NA,NA
"Atkinson Chemist Grange","Atkinson Chemist Grangeway",4.2,"JWR3+VH","20 The Grangeway, London N21 2H",NA,NA
"Virens Chemist & Travel Cli","Virens Chemist & Travel Clinic",4.3,"JXQ2+GQ","560 Hertford Rd, London N9 8A",NA,NA
"Boots Pharm","Boots Pharmacy",2.5,"MW28+CG","32, Shopping Precinct, Palace Gdns, Enfield EN2 6S",NA,NA
"Boots Pharm","Boots Pharmacy",2.5,"MW28+CG","32, Shopping Precinct, Palace Gdns, Enfield EN2 6S",NA,NA
"Aqua Chemist + Travel Clinic + Yellow Fever Cen","Aqua Chemist + Travel Clinic + Yellow Fever Centre",3.5,"JWHW+CW","55 Bounces Rd, London N9 8J",NA,NA
"Highlands Pharm","Highlands Pharmacy",3.9,"JVWQ+GR","4 Florey Square, London N21 1U",NA,NA
"Asda Edmonton Green Superst","Asda Edmonton Green Superstore",4.1,"JWFR+26","1 W Mall, London N9 0A",NA,NA
"Superd","Superdrug",3.8,"MW29+HG","palace Exchange, Units 14 & 15, Enfield EN2 6B",NA,NA
"Wellcare Pharm","Wellcare Pharmacy",4.5,"JW87+MV","14 Kendal Parade, Silver St., London N18 1N",NA,NA
"Chase Farm Pharm","Chase Farm Pharmacy",2,"Amigable","Ground Floor, Chase Farm Hospital, 127 The Ridgeway, Enfield EN2 8J",NA,NA
"MediRush Pharm","MediRush Pharmacy",4.6,"GW6R+MG","Shop No. 116, Railway Arches, Chapman St, London E1 2P",NA,NA
"Edmonton Green Pharmacy and Travel Clinic (formerly Jade Pharma","Edmonton Green Pharmacy and Travel Clinic (formerly Jade Pharmacy)",3.3,"JWFR+R9","edmonton green shopping centre, 13, The N9 0T",NA,NA
"ASDA Pharm","ASDA Pharmacy",3.1,"JWFR+26","1 W Mall, London N9 0A",NA,NA
"Scott's Pharm","Scott's Pharmacy",3.8,"JW8G+F7","99 Silver St., London N18 1R",NA,NA
"Superdrug Pharm","Superdrug Pharmacy",2.9,"JWFV+R3","edmonton green shopping centre, 21 Market Parade, London N9 0T",NA,NA
"Skot Pharmacy - Alphega Pharm","Skot Pharmacy - Alphega Pharmacy",4.7,"JWFM+4M","139 Victoria Rd, London N9 9B",NA,NA
"Green Cross Pharm","Green Cross Pharmacy",4.6,"JW8P+97","213 Fore St, London N18 2T",NA,NA
"Walkers Pharm","Walkers Pharmacy",4.4,"JVCV+QV","410 Green Lanes, London N13 5X",NA,NA
"Wise Pharm","Wise Pharmacy",2.7,"JW6M+PW","93 Fore St, London N18 2T",NA,NA
"Aldermans Pharmacy & Travel Cli","Aldermans Pharmacy & Travel Clinic",4.9,"JV9Q+FC","38 - 40 Aldermans Hill, London N13 4P",NA,NA
"Asda Ponders End Supermar","Asda Ponders End Supermarket",3.3,"JXR3+JC","67 High St, Ponders End, Enfield EN3 4E",NA,NA
"Clayton Pharmacy- Pharmacy and Travel Clinic in Chesh","Clayton Pharmacy- Pharmacy and Travel Clinic in Cheshunt",5,"PX28+F4","6, Clayton Parade, Turners Hill, Cheshunt, Waltham Cross EN8 8N",NA,NA
"Pyramid Pharmacy & Travel Cli","Pyramid Pharmacy & Travel Clinic",4.9,"JX8J+MV","267 Chingford Mount Rd, London E4 8L",NA,NA
"Boots Pharm","Boots Pharmacy",4.4,"PW67+4C","694 Goffs Ln, Goff's Oak, Waltham Cross EN7 5E",NA,NA
"Bees Dispensing Chemist + Travel Clinic + Yellow Fever Cen","Bees Dispensing Chemist + Travel Clinic + Yellow Fever Centre",4.2,"JW7P+C6","172 Fore St, London N18 2J",NA,NA
"",NA,4.7,"JW37+X9","11 Great Cambridge Rd, London N17 7L",NA,NA
"Med-Chem Pharm","Med-Chem Pharmacy",3.9,"HWH2+3G","73, Grand Parade, 73 Green Lanes, London N4 1D",NA,NA
"Med-Chem Pharm","Med-Chem Pharmacy",3.9,"HWH2+3G","73, Grand Parade, 73 Green Lanes, London N4 1D",NA,NA
"Atkinsons Chem","Atkinsons Chemist",4.2,"JWJ3+9H","750 Green Lanes, London N21 3R",NA,NA
"Good Health Pharm","Good Health Pharmacy",4,"HWPC+3V","112 W Green Rd, South Tottenham, London N15 5A",NA,NA
"Simmons Pharm","Simmons Pharmacy",3.5,"JVX2+CQ","111 Cockfosters Rd, Cockfosters, Barnet EN4 0D",NA,NA
"Hampden Square Pharmacy + Travel Clinic + Yellow Fever Cen","Hampden Square Pharmacy + Travel Clinic + Yellow Fever Centre",4,"JVJ4+WJ","14 Hampden Square, London N14 5J",NA,NA
"Greena","Greenacre",4,"JVX2+GW","9 Station Parade, Barnet EN4 0D",NA,NA
"Greenfield Pharm","Greenfield Pharmacy",4.8,"JRW7+G9","Great N Rd, New Barnet, Barnet EN5 1E",NA,NA
"Greenfield Pharm","Greenfield Pharmacy",4.8,"JRW7+G9","Great N Rd, New Barnet, Barnet EN5 1E",NA,NA
"Well Pharm","Well Pharmacy",2.5,"J294+M9","20 Hatch Ln, London E4 6L",NA,NA
"Kingshead Chem","Kingshead Chemist",4,"JXPP+HR","7PA, 59 Sewardstone Rd, London E4 7P",NA,NA
"K Waterhouse chem","K Waterhouse chemist",3.9,"JVJC+RG","88 Crown Ln, London N14 5E",NA,NA
"Benjamin Pharm","Benjamin Pharmacy",4.1,"JX8J+JX","263 Chingford Mount Rd, London E4 8L",NA,NA
"Reliance Pharm","Reliance Pharmacy",5,"M2P2+3V","R/O, Thrift Cottage, Sewardstone Rd, Waltham Abbey EN9 1N",NA,NA
"Morrisons Pharm","Morrisons Pharmacy",3.7,"JV8Q+MQ","19 Aldermans Hill, London N13 4E",NA,NA
"ASDA Pharm","ASDA Pharmacy",2.5,"JVM9+PG","130 Chase Side, London N14 5P",NA,NA
"Palmers Pharm","Palmers Pharmacy",4.6,"JV9R+8M","325 Green Lanes, London N13 4Y",NA,NA
"Safedale Ltd Head Off","Safedale Ltd Head Office",5,"JWR2+WM","Ramsay House, 18 Vera Ave, London N21 1R",NA,NA
"Safedale Ltd Head Off","Safedale Ltd Head Office",5,"JWR2+WM","Ramsay House, 18 Vera Ave, London N21 1R",NA,NA
"Goddard Veterinary Group, Enfi","Goddard Veterinary Group, Enfield",4.5,"MX43+RC","5 Green St, Enfield EN3 7H",NA,NA
"Day Lewis Pharmacy Tottenham + Travel Cli","Day Lewis Pharmacy Tottenham + Travel Clinic",3.7,"JW4G+5J","Family Health Care Centre, Somerset Gardens, 4 Creighton Rd, London N17 8N",NA,NA
"",NA,3.6,"JRGR+F6","253 Oakleigh Rd N, London N20 0T",NA,NA
"Well Pharm","Well Pharmacy",1.8,"J252+53","10 The Avenue, London E4 9L",NA,NA
"Cheshunt Pharm","Cheshunt Pharmacy",5,"PW2X+QQ","21 Cromwell Ave, Cheshunt, Waltham Cross EN7 5D",NA,NA
"Mountford Pharm","Mountford Pharmacy",4.6,"MR2G+38","11 E Barnet Rd, New Barnet, Barnet EN4 8R",NA,NA
"S V R Chem","S V R Chemist",3.7,"JRWM+R6","141, 147 E Barnet Rd, London, Barnet EN4 8Q",NA,NA
"Tesco Pharm","Tesco Pharmacy",4.5,"JX52+XP","1 Glover Dr, London N18 3H",NA,NA
"Shore Pharmacy + Travel Clinic + Yellow Fever Cen","Shore Pharmacy + Travel Clinic + Yellow Fever Centre",3.6,"JRJV+26","79 Russell Ln, London N20 0B",NA,NA
"Pharmacy Cube + Weight Loss Cli","Pharmacy Cube + Weight Loss Clinic",5,"JX7M+G6","1A Kingsley Gardens, London E4 8J",NA,NA
"Grace Pharm","Grace Pharmacy",2.2,"JW3Q+2W","169 Park Ln, London N17 0H",NA,NA
"White Lodge Medical Pract","White Lodge Medical Practice",4.2,"MW56+9R","109 Chase Side, Enfield EN2 6N",NA,NA
"Greens Pharmacy - Alphega Pharm","Greens Pharmacy - Alphega Pharmacy",2.9,"JV6R+H7","48 Green Lanes, London N13 6J",NA,NA
"Swan Pharm","Swan Pharmacy",5,"PX28+F4","5, Clayton Parade, Turners Hill, Cheshunt, Waltham Cross EN8 8N",NA,NA
"Brand Russell Pharmacy & Barnet Travel Cli","Brand Russell Pharmacy & Barnet Travel Clinic",4.1,"JRVP+2M","280 E Barnet Rd, London, Barnet EN4 8T",NA,NA
"Boots Pharm","Boots Pharmacy",NA,"MXM8+MJ","81, The Pavilion, High St, Waltham Cross EN8 7B",NA,NA
"N R PATEL CHEM","N R PATEL CHEMIST",5,"JV7H+3F","153 Bowes Rd, London N13 4S",NA,NA
"Lex Pharm","Lex Pharmacy",4.6,"PW7V+GJ","Rosedale Way, Cheshunt, Waltham Cross EN7 6Q",NA,NA
"Warwick Pharm","Warwick Pharmacy",3.6,"JV4G+W3","50 Bounds Green Rd, London N11 2E",NA,NA
"Hatch Pharm","Hatch Pharmacy",4.2,"J294+JF","30 Hatch Ln, London E4 6L",NA,NA
"Clockwork Pharmacy & Travel Vaccination Cli","Clockwork Pharmacy & Travel Vaccination Clinic",4.6,"JV4G+RH","9, Queens Parade, Brownlow Rd, London N11 2D",NA,NA
"Woodhouse Pharmacy & Travel Cli","Woodhouse Pharmacy & Travel Clinic",5,"JR7R+23","209 Woodhouse Rd, London N12 9A",NA,NA
"Day Lewis Pharmacy Broxbou","Day Lewis Pharmacy Broxbourne",4.4,"PXF9+7H","Day Lewis Pharmacy (ABC, Vancouver Rd, Broxbourne EN10 6F",NA,NA
"Mount Pharmacy Travel Clinic & Ear Wax Removal & Weight Loss Cen","Mount Pharmacy Travel Clinic & Ear Wax Removal & Weight Loss Centre",4.6,"JX6J+7W","80 Chingford Mount Rd, London E4 9A",NA,NA
"Chase Farm Hospi","Chase Farm Hospital",3.8,"MV8W+QV","127 The Ridgeway, Enfield EN2 8J",NA,NA
"Morrisons Pharm","Morrisons Pharmacy",1.9,"JX4J+R2","7 Salisbury Hall Gdns, Chingford Rd, London E4 8S",NA,NA
"Cooper Chemi","Cooper Chemists",4.9,"JV87+GW","364 Bowes Rd, Arnos Grove, London N11 1A",NA,NA
"Walbrook Pharm","Walbrook Pharmacy",4.8,"JVFG+MP","44 Cannon Hill, London N14 6L",NA,NA
"Rosewood Pharmacy - Chingf","Rosewood Pharmacy - Chingford",4.6,"J2J3+H8","2C Station Rd, London E4 7B",NA,NA
"Whitefield Chem","Whitefield Chemist",4.9,"PX68+24","76 High St, Cheshunt, Waltham Cross EN8 0A",NA,NA
"Reena pharmacy and Travel Cli","Reena pharmacy and Travel Clinic",3.4,"JV5Q+6V","352 High Rd, London N22 8J",NA,NA
"Cristal's Pharm","Cristal's Pharmacy",4.4,"PX28+C8","4 Lynton Parade, Turners Hill, Cheshunt, Waltham Cross EN8 8L",NA,NA
"Punni Pharm","Punni Pharmacy",4.6,"PX57+WJ","49 High Street Cheshunt, Cheshunt, Waltham Cross EN8 0B",NA,NA
"Alpha Pharm","Alpha Pharmacy",4.5,"JV2P+WP","18 Commerce Rd, London N22 8E",NA,NA
"Tesco Pharm","Tesco Pharmacy",4.1,"JR4W+R4","Coppetts Centre, N Circular Rd., London N12 0S",NA,NA
"Pharmoc","Pharmocare",5,"JW6M+RW","107 Fore St, London N18 2X",NA,NA
"Boots Pharm","Boots Pharmacy",1,"JVM9+8R","78 Chase Side, London N14 5P",NA,NA
"Asda Southgate Circus Supercen","Asda Southgate Circus Supercentre",3.6,"JVM9+QF","130 Chase Side, London N14 5P",NA,NA
"Abbott Pharm","Abbott Pharmacy",3.8,"JV22+2V","101 Colney Hatch Ln, London N10 1L",NA,NA
"Eagle House Surg","Eagle House Surgery",1.7,"JXX3+5G","Eagle House Surgery, 291 High St, Enfield EN3 4D",NA,NA
"Duncans Pharm","Duncans Pharmacy",3,"FXHQ+62","195 Greenwich High Rd, London SE10 8J",NA,NA
"Chemists N.H.S Prescripti","Chemists N.H.S Prescriptions",1,"FXFP+72","Blackheath Hill, London SE10 8P",NA,NA
"Mangal Pharm","Mangal Pharmacy",3.5,"G224+79","8 Green Place, London SE10 0P",NA,NA
"P E Logan Pharm","P E Logan Pharmacy",3.9,"F2P4+9Q","209 Trafalgar Rd, London SE10 9E",NA,NA
"Day Lewis Pharmacy Lewis","Day Lewis Pharmacy Lewisham",2.3,"FX8H+QC","60 Loampit Hill, London SE13 7S",NA,NA
"Britannia Pharm","Britannia Pharmacy",2.8,"FXVQ+J2","Unit 9 asda centre, 151 E Ferry Rd, London E14 3B",NA,NA
"Amal Pharm","Amal Pharmacy",4.1,"F2V7+X9","166, Metcalfe Court, London SE10 0E",NA,NA
"Rose Pharmacy, Weight Loss and Travel Cli","Rose Pharmacy, Weight Loss and Travel Clinic",4,"FXJH+8P","24 Creek Rd, London SE8 3B",NA,NA
"Asda Charlton Superst","Asda Charlton Superstore",3.6,"F2QF+H3","Bugsby Way, London SE7 7S",NA,NA
"GoodWill Pharm","GoodWill Pharmacy",4.7,"F2R8+MP","4 Trathen Square, London SE10 0B",NA,NA
"Boots Pharm","Boots Pharmacy",3.4,"F2P4+37","198 Trafalgar Rd, London SE10 9E",NA,NA
"",NA,4.6,"FXRH+FH","100 Spindrift Ave, London E14 9W",NA,NA
"Bo","Boots",3.7,"F2QF+HW","Greenwich shopping Park, Bugsby's Way, New Charlton, London SE7 7S",NA,NA
"Geepharm Chem","Geepharm Chemist",2.9,"FXFP+72","3 Blackheath Hill, London SE10 8P",NA,NA
"Allens Pharm","Allens Pharmacy",4.4,"FXXQ+7J","19 Castalia Square, London E14 3P",NA,NA
"Terra Pharma - Greenwich Online Pharm","Terra Pharma - Greenwich Online Pharmacy",NA,"FXHQ+62","195 Greenwich High Rd, London SE10 8J",NA,NA
"",NA,3,"F2QF+HX","Bugsby's Way, New Charlton, London SE7 7S",NA,NA
"ASDA Pharm","ASDA Pharmacy",4.3,"F2QC+GW","Bugsby Way, London SE7 7S",NA,NA
"Nightingale Pharm","Nightingale Pharmacy",4.2,"FXHF+2P","92 Deptford High St, London SE8 4R",NA,NA
"MediRush Pharm","MediRush Pharmacy",4.6,"GW6R+MG","Shop No. 116, Railway Arches, Chapman St, London E1 2P",NA,NA
"MediRush Pharm","MediRush Pharmacy",4.6,"GW6R+MG","Shop No. 116, Railway Arches, Chapman St, London E1 2P",NA,NA
"MediRush Pharm","MediRush Pharmacy",4.6,"GW6R+MG","Shop No. 116, Railway Arches, Chapman St, London E1 2P",NA,NA
"MediRush Pharm","MediRush Pharmacy",4.6,"GW6R+MG","Shop No. 116, Railway Arches, Chapman St, London E1 2P",NA,NA
"Lockyer Pharm","Lockyer Pharmacy",4.6,"FXM9+C8","252 Evelyn St, London SE8 5B",NA,NA
"Night Pleas","Night Pleasure",2.3,"G22W+W9","10 Constance St, London E16 2D",NA,NA
"Krisons Chem","Krisons Chemist",3.4,"FXFF+WC","506 New Cross Rd, London SE14 6T",NA,NA
"Village Pharmacy - Travel and Ear Wax Removal Cli","Village Pharmacy - Travel and Ear Wax Removal Clinic",4.7,"F2JP+PH","9 The Village, London SE7 8U",NA,NA
"Blackheath Standard Pharmacy - Travel Cli","Blackheath Standard Pharmacy - Travel Clinic",4.5,"F2H9+2J","182 Westcombe Hill, London SE3 7D",NA,NA
"Carsil Perfumery Pharm","Carsil Perfumery Pharmacy",4.3,"GWWV+HV","Sylvester Rd, London E8 1H",NA,NA
"Marijak ","Marijak Ltd",4.3,"GWWV+HV","319 Mare St, London E",NA,NA
"Regal Pharm","Regal Pharmacy",5,"HW2X+C8","59 Lower Clapton Rd, Lower Clapton, London E5 0N",NA,NA
"HACKNEY PHARMACY & TRAVEL CLINIC CENT","HACKNEY PHARMACY & TRAVEL CLINIC CENTRE.",2.9,"HW7X+Q5","15a, Urban Hive, Theydon Rd, London E5 9B",NA,NA
"Clockwork Pharmacy & Travel Vaccination Cli","Clockwork Pharmacy & Travel Vaccination Clinic",4.6,"GWXW+J2","398, 400 Mare St, London E8 1H",NA,NA
"Carsil Chemists, Marijak L","Carsil Chemists, Marijak Ltd.",4.5,"GWWV+HV","319 Mare St, London E8 1E",NA,NA
"MediRush Pharm","MediRush Pharmacy",4.7,"GW6R+MG","Shop No. 116, Railway Arches, Chapman St, London E1 2P",NA,NA
"Bo","Boots",3.4,"GWXW+G2","388 Mare St, London E8 1H",NA,NA
"Haggerston Pharmacy and Travel Vaccine and Health cen","Haggerston Pharmacy and Travel Vaccine and Health centre",4.7,"GWQG+7V","201 Haggerston Rd, London E8 4F",NA,NA
"Kingsland Pharmacy + Travel Cli","Kingsland Pharmacy + Travel Clinic",4.3,"GWRF+JJ","406 Kingsland Rd, London E8 4A",NA,NA
"Sonigra Pharm","Sonigra Pharmacy",4.6,"GWRW+2F","44a, 44b Well St, London E9 7P",NA,NA
"Kalpesh Pharm","Kalpesh Pharmacy",5,"HX46+88","201 Rushmore Rd, Lower Clapton, London E5 0H",NA,NA
"Clockwork Pharmacy & Travel Vaccination Cli","Clockwork Pharmacy & Travel Vaccination Clinic",4.5,"GXV3+WH","238 Well St, London E9 6Q",NA,NA
"Safedale Pharmacy, Weight Loss and Travel Cli","Safedale Pharmacy, Weight Loss and Travel Clinic",4.6,"HW2X+C8","59 Lower Clapton Rd, Lower Clapton, London E5 0N",NA,NA
"Tesco Pharm","Tesco Pharmacy",2.8,"GWWW+QV","55 Morning Ln, London E9 6N",NA,NA
"Clarks Chemist - Alphega Pharm","Clarks Chemist - Alphega Pharmacy",3.4,"GWPQ+WH","68 Broadway Market, London E8 4Q",NA,NA
"Silverfields: Pharmacy & Perfum","Silverfields: Pharmacy & Perfumery",4.3,"GXX5+GH","141 Homerton High St, London E9 6A",NA,NA
"Devs Chem","Devs Chemist",2,"GWXJ+8V","103A Dalston Ln, London E8 1N",NA,NA
"Norlington Chemist ","Norlington Chemist Ltd",3.2,"GWPQ+83","3 Broadway Market, London E8 4P",NA,NA
"J Edmunds Pharm","J Edmunds Pharmacy",3.6,"GWXF+4P","47 Kingsland High St, London E8 2J",NA,NA
"Bee Pharm","Bee Pharmacy",3.8,"GWMR+2V","517 Hackney Rd, Cambridge Heath, London E2 9E",NA,NA
"Guardian Pharmacy and Travel Cen","Guardian Pharmacy and Travel Centre",4.9,"GWVF+2M","448 Kingsland Rd, London E8 4A",NA,NA
"Clockwork Pharmacy & Travel Vaccination Cli","Clockwork Pharmacy & Travel Vaccination Clinic",4.9,"GXQ4+84","Victoria Park, 215-217 Victoria Park Rd, London E9 7H",NA,NA
"Friends Pharm","Friends Pharmacy",4.6,"HW2X+J8","46 Lower Clapton Rd, Lower Clapton, London E5 0R",NA,NA
"Bees Pharmacy and Travel Cli","Bees Pharmacy and Travel Clinic",5,"GXW7+4W","261 Wick Rd, London E9 5D",NA,NA
"Bees Pharmacy and Travel Cli","Bees Pharmacy and Travel Clinic",5,"GXW7+4W","261 Wick Rd, London E9 5D",NA,NA
"Spring Pharmacy - Pharmacy & Travel Cli","Spring Pharmacy - Pharmacy & Travel Clinic",4.2,"GWM9+9V","233 Hoxton St, London N1 5L",NA,NA
"Tesco Superst","Tesco Superstore",3.3,"GWWW+QW","Tesco Stores Ltd, 55 Morning Ln, London E9 6N",NA,NA
"Borno Pharmacy Bethnal Gr","Borno Pharmacy Bethnal Green",3,"GWJV+CG","204 Cambridge Heath Rd, Cambridge Heath, London E2 9N",NA,NA
"Day Lewis Pharmacy Moved to :253 Whitechapel Rd, London E1 ","Day Lewis Pharmacy Moved to :253 Whitechapel Rd, London E1 1DB",3,"GW9P+CH","195 Whitechapel Rd, London E1 1D",NA,NA
"Day Lewis Pharmacy Clap","Day Lewis Pharmacy Clapton",3.4,"HW5Q+83","Day Lewis Pharmacy, 14 Kenninghall Rd, Lower Clapton, London E5 8B",NA,NA
"Day Lewis Pharmacy Stoke Newing","Day Lewis Pharmacy Stoke Newington",2.7,"HW3F+FX","77 Stoke Newington Rd, London N16 8A",NA,NA
"F.A. STRA","F.A. STRANGE",3.8,"HW4V+9Q","185 Lower Clapton Rd, Lower Clapton, London E5 8E",NA,NA
"Superd","Superdrug",3.9,"GWXG+37","Unit 10/11, Dalston Cross Shopping Centre, Kingsland High St, London E8 2L",NA,NA
"Regal Pharm","Regal Pharmacy",4.9,"HX34+67","50 Chatsworth Rd, Lower Clapton, London E5 0L",NA,NA
"Boots Pharm","Boots Pharmacy",5,"GWXW+G2","388 Mare St, London E8 1H",NA,NA
"Bo","Boots",3.8,"GWXF+FW","84 Kingsland High St, London E8 2N",NA,NA
"Bees Pharmacy and Travel Cli","Bees Pharmacy and Travel Clinic",4.6,"HX46+88","201 Rushmore Rd, Lower Clapton, London E5 0H",NA,NA
"Clockwork Pharmacy & Travel Vaccination Cli","Clockwork Pharmacy & Travel Vaccination Clinic",5,"GXV3+P7","239 Well St, London E9 6R",NA,NA
"Mahesh Chemist & Travel Cli","Mahesh Chemist & Travel Clinic",4.8,"Amigable","111 Newington Green Rd, London N1 4Q",NA,NA
"Columbia Pharmacy - Alphega Pharm","Columbia Pharmacy - Alphega Pharmacy",3.5,"GWHH+FV","104 Columbia Rd, London E2 7Q",NA,NA
"UniPharm Pharm","UniPharm Pharmacy",3.6,"GWPF+35","253 Kingsland Rd, London E2 8A",NA,NA
"Judds Pharm","Judds Pharmacy",4.7,"GWH8+RG","73 Pitfield St, London N1 6B",NA,NA
"Milest","Milestars",NA,"GXX5+HH","141 Homerton High St, London E9 6A",NA,NA
"Britannia Pharm","Britannia Pharmacy",3.4,"GXH2+87","80 Roman Rd, Globe Town, London E2 0P",NA,NA
"Britannia Pharm","Britannia Pharmacy",3.4,"GXH2+87","80 Roman Rd, Globe Town, London E2 0P",NA,NA
"Megtraco Pharmacy - Alphega Pharm","Megtraco Pharmacy - Alphega Pharmacy",5,"GWVF+2J","448 Kingsland Rd, London E8 4A",NA,NA
"The Old Maids Pharm","The Old Maids Pharmacy",4.7,"GWGP+M9","321 Bethnal Grn Rd, London E2 6A",NA,NA
"Phlo Digital Pharm","Phlo Digital Pharmacy",3.1,"GWMR+G9","Unit 13, Containerville, 35 Corbridge Cres, London E2 9E",NA,NA
"Superdrug Pharm","Superdrug Pharmacy",2,"GWXG+3G","Unit 10/11, Dalston Cross Shopping Centre, Kingsland High St, London E8 2L",NA,NA
"Silverfields Pharm","Silverfields Pharmacy",4.9,"HX28+M5","5 Kingsmead Way, London E9 5Q",NA,NA
"AsvaCare Pharm","AsvaCare Pharmacy",3.4,"HW7R+H6","97 Upper Clapton Rd, London E5 9B",NA,NA
"AsvaCare Pharm","AsvaCare Pharmacy",3.4,"HW7R+H6","97 Upper Clapton Rd, London E5 9B",NA,NA
"Florida Pharmacy (Travel Clinic - Yellow Fever Centre + Ear Wax Removal Clin","Florida Pharmacy (Travel Clinic - Yellow Fever Centre + Ear Wax Removal Clinic)",4.1,"GWGP+J5","307 Bethnal Grn Rd, London E2 6A",NA,NA
"New North Pharm","New North Pharmacy",4.9,"GWQ5+74","297 New N Rd, London N1 7A",NA,NA
"Murrays Chemist & Travel Cli","Murrays Chemist & Travel Clinic",4.8,"GWJ6+CF","98 Murray Grove, London N1 7Q",NA,NA
"Massingham Chemist and Travel Vaccine Cli","Massingham Chemist and Travel Vaccine Clinic",4.4,"GXH3+QF","199 Roman Rd, Bethnal Green, London E2 0Q",NA,NA
"Lincoln Pharmacy - Travel Clinic & Weight Loss Cli","Lincoln Pharmacy - Travel Clinic & Weight Loss Clinic",4.2,"GX9G+73","124 St Paul's Way, London E3 4Q",NA,NA
"Homerton University Hospi","Homerton University Hospital",3.4,"HX23+7P","Homerton Row, London E9 6S",NA,NA
"Boots Pharm","Boots Pharmacy",NA,"GWXF+CW","84 Kingsland High St, London E8 2N",NA,NA
"Hammersmith Pharm","Hammersmith Pharmacy",4.2,"FQQG+8X","109 Fulham Palace Rd, London W6 8J",NA,NA
"kensington Aesthetics Pharm","kensington Aesthetics Pharmacy",5,"FQQW+69","Londres W14 9P",NA,NA
"Boots Pharm","Boots Pharmacy",2.3,"FQMH+VW","200 Fulham Palace Rd, London W6 9P",NA,NA
"Oza Chemist (NHS & Private Prescription) - Ear Wax Microsuction Cli","Oza Chemist (NHS & Private Prescription) - Ear Wax Microsuction Clinic",4.7,"FRJ3+38","9 Fulham Broadway, London SW6 1A",NA,NA
"Fulham Palace Pharmacy & Travel Clinic Plus NHS/private servi","Fulham Palace Pharmacy & Travel Clinic Plus NHS/private services",3.4,"FQGM+CX","331 Fulham Palace Rd, London SW6 6T",NA,NA
"Myhealth Pharm","Myhealth Pharmacy",4.2,"FRJ2+67","5, Regal Centre, 402 North End Rd, London SW6 1L",NA,NA
"North End Pharm","North End Pharmacy",4.2,"FQQV+RF","100A North End Rd, London W14 9E",NA,NA
"Fulham Pharm","Fulham Pharmacy",3.9,"FQGW+PP","608 Fulham Rd., London SW6 5R",NA,NA
"Pyramid Pharm","Pyramid Pharmacy",2.6,"FQQW+5C","4, 160 North End Rd, London W14 9P",NA,NA
"Kanari Pharm","Kanari Pharmacy",4.6,"FQFV+XC","684 Fulham Rd., London SW6 5S",NA,NA
"Day Lewis Pharmacy Ful","Day Lewis Pharmacy Fulham",2.5,"FRF5+4C","121 Wandsworth Bridge Rd., London SW6 2T",NA,NA
"Fontain Pharm","Fontain Pharmacy",3.4,"FQJP+HV","290 Munster Rd, London SW6 6B",NA,NA
"Flux Trimm","Flux Trimmers",NA,"FRH5+5X","638 King's Rd, London SW6 2D",NA,NA
"BEST AM 2","BEST AM 2 PM",3.7,"FQQV+W9","96 North End Rd, London W14 9E",NA,NA
"Kanari ","Kanari Ltd",5,"FQFV+W9","682 Fulham Rd., London SW6 5S",NA,NA
"Superdrug Pharm","Superdrug Pharmacy",2.6,"FQRC+XW","68 King St, London W6 9H",NA,NA
"Superdrug Pharm","Superdrug Pharmacy",2.7,"FQPX+54","317 North End Rd, London SW6 1N",NA,NA
"Zafash 365 Days Pharm","Zafash 365 Days Pharmacy",3.7,"FRQ5+QX","233, 235 Old Brompton Rd, London SW5 0E",NA,NA
"Boots Pharm","Boots Pharmacy",3,"FRJ3+38","Retail Centre, Unit 7 Fulham Broadway, London SW6 1B",NA,NA
"Doctor Care Pharm","Doctor Care Pharmacy",4.5,"FQRP+2J","3 Margravine Gardens, London W6 8R",NA,NA
"C E Harrod Chemist - Part of Pearl Chemist Gr","C E Harrod Chemist - Part of Pearl Chemist Group",4.5,"FRF2+6V","207 New Kings Rd, London SW6 4S",NA,NA
"Lloyds Pharm","Lloyds Pharmacy",1.6,"FQPH+WW","Opd Imp-Charing Cross Hosp, Fulham Palace Rd, London W6 8R",NA,NA
"Bo","Boots",3.5,"FRJ3+38","Retail Centre, Unit 7 Fulham Broadway, London SW6 1B",NA,NA
"Bo","Boots",3.8,"FQVF+36","43 King St, London W6 9H",NA,NA
"H. Lloyd Chem","H. Lloyd Chemist",3.2,"Amigable","5 Hammersmith Rd, London W14 8X",NA,NA
"Superd","Superdrug",3.9,"FQPX+54","317 North End Rd, London SW6 1N",NA,NA
"Boots Pharm","Boots Pharmacy",1,"FQVF+25","43 King St, London W6 9H",NA,NA
"Boots Pharm","Boots Pharmacy",1,"FQVF+25","43 King St, London W6 9H",NA,NA
"PharmProfessionals Education and training speciali","PharmProfessionals Education and training specialists",NA,NA,"020 3633 949",49.5022571,8.4684512
"Tesco Pharm","Tesco Pharmacy",3.7,"FQXG+2C","180 Shepherds Bush Rd, London W6 7N",NA,NA
"Jhoots Pharmacy Hammersm","Jhoots Pharmacy Hammersmith",2.5,"GQ2F+59","Health Centre, Richford Gate, 49 Richford St, London W6 7H",NA,NA
"Fontain Pharm","Fontain Pharmacy",NA,NA,"020 7385 035",45.8097528,14.7425657445546
"Earls Court Chem","Earls Court Chemist",3.8,"FRR4+XG","206 Earls Ct Rd, London SW5 9Q",NA,NA
"Healthside Pharm","Healthside Pharmacy",3.9,"FQXH+W3","90 Shepherds Bush Rd, London W6 7P",NA,NA
"Savers Health & Bea","Savers Health & Beauty",4.5,"FQJX+VV","334 North End Rd, London SW6 1N",NA,NA
"Sainsbur","Sainsbury's",4.1,"FQVC+6F","3, Kings Mall, King St, London W6 0P",NA,NA
"Sainsbur","Sainsbury's",4.1,"FQVC+6F","3, Kings Mall, King St, London W6 0P",NA,NA
"",NA,3.7,"FQPJ+Q5","Fulham Palace Rd, London W6 8R",NA,NA
"Bo","Boots",3.7,"FRR4+MW","254 Earls Ct Rd, London SW5 9A",NA,NA
"Tesco Superst","Tesco Superstore",4,"FQXG+3C","Tesco Stores Ltd, 180 Shepherds Bush Rd, London W6 7N",NA,NA
"Confidential Clin","Confidential Clinics",5,"FQRP+2H","3 Margravine Gardens, London W6 8R",NA,NA
"Prime Pharm","Prime Pharmacy",4.1,"FQP8+9W","198 Castelnau, London SW13 9D",NA,NA
"Tesco Pharm","Tesco Pharmacy",4.2,"FQVX+5G","W Cromwell Rd, London W14 8P",NA,NA
"Tesco Pharm","Tesco Pharmacy",4.2,"FQVX+5G","W Cromwell Rd, London W14 8P",NA,NA
"CityDoc In-Pharmacy Travel Clinic, Hammersm","CityDoc In-Pharmacy Travel Clinic, Hammersmith",NA,"FQQH+82","Hammersmith Pharmacy, 109 Fulham Palace Rd, London W6 8J",NA,NA
"Boots Pharm","Boots Pharmacy",3,"FRR4+MW","254 Earls Ct Rd, London SW5 9A",NA,NA
"London Homeopa","London Homeopathy",4.8,"FQGW+JF","Fulham Osteopaths, 769 Fulham Rd., London SW6 5H",NA,NA
"Vue Cinema London - Fulham Broad","Vue Cinema London - Fulham Broadway",4.2,"FRJ4+75","Fulham Broadway Centre, Retail Centre, London SW6 1B",NA,NA
"Goddard Veterinary Group, Ful","Goddard Veterinary Group, Fulham",4.2,"FRH6+97","612 King's Rd, London SW6 2D",NA,NA
"Sophia Chemists ( Forre","Sophia Chemists ( Forrest)",4.8,"FQXM+23","67 Blythe Rd, London W14 0H",NA,NA
"Med-Chem Pharm","Med-Chem Pharmacy",3.9,"HWH2+3G","73, Grand Parade, 73 Green Lanes, London N4 1D",NA,NA
"Nhs Pharm","Nhs Pharmacy",4,"HVCP+29","Finsbury Park, Londres N4 3P",NA,NA
"Green Light Pharmacy - Green La","Green Light Pharmacy - Green Lanes",4.1,"HWJ2+Q7","4 Grand Parade, Harringay Ladder, London N4 1J",NA,NA
"Armstrong Pharmacy & Travel Cli","Armstrong Pharmacy & Travel Clinic",3.9,"HW74+MV","279 Green Lanes, Finsbury Park, London N4 2E",NA,NA
"Parade Chem","Parade Chemist",4.8,"HWJ2+78","25 Grand Parade, Green Lanes, Harringay Ladder, London N4 1L",NA,NA
"Park Pharmacy (Offering Pharmacy First Servi","Park Pharmacy (Offering Pharmacy First Service)",4.1,"HV7W+WC","286 Seven Sisters Rd, Finsbury Park, London N4 2A",NA,NA
"Pharmacy ","Pharmacy Nhs",3,"JV9R+8M","325 Green Lanes, London N13 4Y",NA,NA
"Local Pharmacy Onl","Local Pharmacy Online",4.6,"HV78+P2","39 Junction Rd, Archway, London N19 5Q",NA,NA
"Safedale Pharmacy, Weight Loss Cli","Safedale Pharmacy, Weight Loss Clinic",4.5,"HW55+2W","162 Green Lanes, London N16 9D",NA,NA
"Hornsey Road Pharmacy and Travel Cli","Hornsey Road Pharmacy and Travel Clinic",4.6,"HV4Q+CH","84 Hornsey Rd, London N7 7N",NA,NA
"Nonchala","Nonchalante",NA,"HVPX+XX","Wordsworth House, 22 Alfoxton Ave, Harringay Ladder, London N15 3D",NA,NA
"Porter Pharm","Porter Pharmacy",5,"JW47+2M","Great Cambridge Rd, London N17 7B",NA,NA
"Pyramid Pharm","Pyramid Pharmacy",5,"HWJ2+Q6","4 Grand Parade, Green Lanes, Harringay Ladder, London N4 1J",NA,NA
"Chemitex Pharmacy + Travel Clinic + Ear Microsuction + Weight L","Chemitex Pharmacy + Travel Clinic + Ear Microsuction + Weight Loss",4.7,"HV7J+8Q","332 Hornsey Rd, Finsbury Park, London N7 7H",NA,NA
"Rowlands Pharmacy Marlborough Par","Rowlands Pharmacy Marlborough Parade",2.1,"HWC3+6V","274 Green Lanes, Woodberry Down, London N4 2H",NA,NA
"Stearns Pharm","Stearns Pharmacy",4.7,"HVMX+7X","571 Green Lanes, Harringay Ladder, London N8 0R",NA,NA
"Wellcare Pharm","Wellcare Pharmacy",3.5,"GVX5+XG","321 Kentish Town Rd, London NW5 2T",NA,NA
"J C Wise Pharm","J C Wise Pharmacy",4.3,"HV9G+PG","518 Hornsey Rd, Finsbury Park, London N19 3Q",NA,NA
"Good Health Pharm","Good Health Pharmacy",4,"HWPC+3V","112 W Green Rd, South Tottenham, London N15 5A",NA,NA
"Greenwoods Pharmacy, Travel Clinic and Perfum","Greenwoods Pharmacy, Travel Clinic and Perfumery",4.2,"HVWR+H5","17 The Broadway, London N22 6D",NA,NA
"Petter Pharm","Petter Pharmacy",4.5,"HVJG+29","51 The Broadway, London N8 8D",NA,NA
"Arkle Pharm","Arkle Pharmacy",4.4,"HV78+P2","39 Junction Rd, Archway, London N19 5Q",NA,NA
"Dev's Chem","Dev's Chemist",3.6,"HV5M+WR","110 Seven Sisters Rd, London N7 6A",NA,NA
"Saigrace Pharm","Saigrace Pharmacy",3.2,"HVMM+C9","93 Tottenham Ln, London N8 9B",NA,NA
"Wellcare Pharmacy + Travel Clinic + Yellow Fever Cen","Wellcare Pharmacy + Travel Clinic + Yellow Fever Centre",4.2,"HV5H+X4","552 Holloway Rd, London N7 6J",NA,NA
"All Cures Pharm","All Cures Pharmacy",3.2,"HWP5+95","331 W Green Rd, London N15 3P",NA,NA
"Pharmacy Expr","Pharmacy Express",4.2,"HVXQ+6V","214 High Rd, London N22 8H",NA,NA
"Sia Pharm","Sia Pharmacy",4.2,"HVQR+JC","113 Turnpike Ln, Harringay Ladder, London N8 0D",NA,NA
"Sia Pharm","Sia Pharmacy",4.2,"HVQR+JC","113 Turnpike Ln, Harringay Ladder, London N8 0D",NA,NA
"The Harrow Pharm","The Harrow Pharmacy",3.9,"HMP9+Q3","73 Station Rd, Harrow HA1 2T",NA,NA
"Pharm","Pharmacy",1,"HJGH+MJ","382 Rayners Ln, Rayners Lane, Harrow, Pinner HA5 5E",NA,NA
"Rushton Dispensing Chemi","Rushton Dispensing Chemists",4.2,"HPF4+88","292 Preston Rd, Wembley, Harrow HA3 0Q",NA,NA
"North Harrow Pharmacy - Earwax, Travel & Weight Cli","North Harrow Pharmacy - Earwax, Travel & Weight Clinic",4.9,"HJQP+7Q","509 Pinner Rd, North Harrow, Harrow HA2 6E",NA,NA
"Healthways Pharm","Healthways Pharmacy",4.8,"HJGH+JJ","382 Rayners Ln, Rayners Lane, Harrow, Pinner HA5 5D",NA,NA
"ProCare Pharmacy - Travel Clinic & Approved Yellow Fever Centre - Belmont Circle & Kenton L","ProCare Pharmacy - Travel Clinic & Approved Yellow Fever Centre - Belmont Circle & Kenton Lane",3.9,"Amigable","5 Warwick Parade Kenton Ln, Belmont Cir, Harrow HA3 8S",NA,NA
"Nowells Pharmacy + Travel Clinic + Yellow Fever Cen","Nowells Pharmacy + Travel Clinic + Yellow Fever Centre",4.5,"JM36+93","10 Weald Ln, Harrow HA3 5E",NA,NA
"Rushton Pharmacy Harrow - Travel Clinic & Vaccination Cli","Rushton Pharmacy Harrow - Travel Clinic & Vaccination Clinic",4.7,"HPF4+33","277 Preston Rd, Harrow HA3 0P",NA,NA
"Belmont Pharmacy + Travel Clinic + Yellow Fever Cen","Belmont Pharmacy + Travel Clinic + Yellow Fever Centre",4.5,"JM2J+99","5, Station Parade, Belmont Cir, Stanmore HA3 8S",NA,NA
"Keencare Pharmacy - Har","Keencare Pharmacy - Harrow",3.9,"HMJ7+3R","18 College Rd, Harrow HA1 1B",NA,NA
"Reems Pharmacy + Travel Cli","Reems Pharmacy + Travel Clinic",3.9,"JM79+67","107 Uxbridge Rd, Harrow HA3 6D",NA,NA
"Wellcare Pharmacy + Microsuction Ear Wax Removal Cen","Wellcare Pharmacy + Microsuction Ear Wax Removal Centre",4.3,"JM35+VX","385 High Rd, Harrow HA3 6E",NA,NA
"Shaftesbury Pharm","Shaftesbury Pharmacy",3.6,"HJCW+V5","6 Shaftesbury Parade Shaftesbury Cir, South Harrow, Harrow HA2 0A",NA,NA
"Murrays Chemist & Travel Cli","Murrays Chemist & Travel Clinic",4.7,"HMMP+C3","172 Kenton Rd, Harrow HA3 8B",NA,NA
"Doorstep Pharmacy + Travel Cli","Doorstep Pharmacy + Travel Clinic",2.7,"HM95+RX","106 High St, Harrow HA1 3L",NA,NA
"Garner Chemist & Travel Cli","Garner Chemist & Travel Clinic",4.6,"HJJX+QM","160 Pinner Rd, Harrow HA1 4J",NA,NA
"Garner Chemist & Travel Cli","Garner Chemist & Travel Clinic",4.6,"HJJX+QM","160 Pinner Rd, Harrow HA1 4J",NA,NA
"Churchills Pharm","Churchills Pharmacy",4.5,"HMMP+85","207 Kenton Rd, Harrow HA3 0H",NA,NA
"Churchills Pharm","Churchills Pharmacy",4.5,"HMMP+85","207 Kenton Rd, Harrow HA3 0H",NA,NA
"Desons Pharm","Desons Pharmacy",4.8,"HMR3+WF","216 Harrow View, Harrow HA2 6P",NA,NA
"Smart Care Pharm","Smart Care Pharmacy",3,"HP68+PM","110 Wembley Park Drive Wembley Park Wembley, Greater, London HA9 8H",NA,NA
"Honeypot Pharm","Honeypot Pharmacy",2.8,"HPW3+8G","189 Streatfield Rd, Stanmore, Harrow HA3 9D",NA,NA
"Tesco Pharm","Tesco Pharmacy",3.8,"HMP8+GG","Station Rd, Harrow HA1 2T",NA,NA
"Bo","Boots",4.2,"HMJ7+8F","9, St Anns Shopping Centre, 10 St. Anns Rd, Harrow HA1 1A",NA,NA
"Sudbury Court Pharm","Sudbury Court Pharmacy",4.9,"HM8H+M9","221 Watford Rd, Harrow HA1 3U",NA,NA
"CuraPharm Chem","CuraPharm Chemist",4.8,"HM57+2M","159 Greenford Rd, Sudbury Hill, London HA1 3Q",NA,NA
"Superd","Superdrug",3.9,"HMJ8+PP","297/301 Station Rd, Harrow HA1 2T",NA,NA
"Cedars Pharm","Cedars Pharmacy",5,"JJ2V+HQ","197 Headstone Ln, North, Harrow HA2 6N",NA,NA
"Health Pharmacy Earwax Removal & Travel Cli","Health Pharmacy Earwax Removal & Travel Clinic",4.9,"HJPQ+C9","5, Broadway Parade, Pinner Rd, North Harrow, Harrow HA2 7S",NA,NA
"Tesco Superst","Tesco Superstore",3.8,"HMP8+GH","Tesco Stores Ltd, Station Rd, Harrow HA1 2T",NA,NA
"Webber Pharm","Webber Pharmacy",4.6,"HMM5+FJ","105 Headstone Rd, Harrow HA1 1P",NA,NA
"Meads Pharm","Meads Pharmacy",4.6,"HJFH+38","399 Alexandra Ave, Rayners Lane, Harrow HA2 9S",NA,NA
"Meads Pharm","Meads Pharmacy",4.6,"HJFH+38","399 Alexandra Ave, Rayners Lane, Harrow HA2 9S",NA,NA
"Peace Pharm","Peace Pharmacy",4,"HP65+X3","14 The Broadway, Wembley HA9 8J",NA,NA
"Collins Pharmacy and Travel Cli","Collins Pharmacy and Travel Clinic",3.4,"HPW4+53","9 Queensbury Circle Parade, Stanmore HA7 1E",NA,NA
"Stratwicks Pharm","Stratwicks Pharmacy",4.2,"HJ7W+RF","240 Northolt Rd, South Harrow, Harrow HA2 8D",NA,NA
"Andres Pharm","Andres Pharmacy",4.3,"HPC4+W3","261 Preston Rd, Harrow HA3 0P",NA,NA
"P M WILLI","P M WILLIAMS",4.8,"HJ5Q+8G","Northolt Rd, South Harrow, Harrow HA2 8H",NA,NA
"CK Pharm","CK Pharmacy",4.6,"HM4M+6J","820 Harrow Rd, Wembley HA0 3E",NA,NA
"Kings Pharm","Kings Pharmacy",4.1,"HJ6G+PP","336 Eastcote Ln, Harrow HA2 9A",NA,NA
"Alexandra Pharm","Alexandra Pharmacy",4,"HJ7M+RP","190 Alexandra Ave, Harrow HA2 9B",NA,NA
"Alexandra Pharm","Alexandra Pharmacy",4,"HJ7M+RP","190 Alexandra Ave, Harrow HA2 9B",NA,NA
"Health Pharmacy Blood Testing Cli","Health Pharmacy Blood Testing Clinic",4.6,"Amigable","394 Rayners Ln, Rayners Lane, Harrow, Pinner HA5 5D",NA,NA
"Health Pharmacy Blood Testing Cli","Health Pharmacy Blood Testing Clinic",4.6,"Amigable","394 Rayners Ln, Rayners Lane, Harrow, Pinner HA5 5D",NA,NA
"Saville Pharm","Saville Pharmacy",4.7,"HJPQ+25","61 Station Rd, North Harrow, Harrow HA2 7S",NA,NA
"S & S Chemi","S & S Chemists",4.7,"GPWG+FJ","40 Harrow Rd, Wembley HA9 6P",NA,NA
"111Chem","111Chemist",4.9,"HJ6H+F5","136 Carlyon Ave, South Harrow, Harrow HA2 8S",NA,NA
"",NA,1.6,"HMJ8+QM","297/301 Station Rd, Harrow HA1 2T",NA,NA
"K L Pharm","K L Pharmacy",3.4,"HMWP+8V","229 Kenton Ln, Harrow HA3 8R",NA,NA
"Tyerest ","Tyerest Ltd",4,"HPP2+M9","429 Kenton Rd, Harrow HA3 0X",NA,NA
"Jade Pharmacy (Kingsbury) & Travel Cli","Jade Pharmacy (Kingsbury) & Travel Clinic",3.8,"HPMC+W9","533 Kingsbury Rd, Kingsbury Circle, London NW9 9E",NA,NA
"Sharmans Pharmacy and Travel Cli","Sharmans Pharmacy and Travel Clinic",4.2,"JM8P+RX","32 Church Rd, Stanmore HA7 4A",NA,NA
"Rasons Pharm","Rasons Pharmacy",4.6,"HP37+6G","323 Harrow Rd, Wembley HA9 6B",NA,NA
"Shri Pharmacy & Travel Cli","Shri Pharmacy & Travel Clinic",4.5,"HPMC+XP","511 Kingsbury Rd, London NW9 9E",NA,NA
"Health Pharm","Health Pharmacy",4.6,"Amigable","122 Windermere Ave, Wembley HA9 8R",NA,NA
"Boots Pharm","Boots Pharmacy",5,"HMJ6+J3","16, St. Georges Shopping & Leisure Centre, St. Anns Rd, Harrow HA1 1H",NA,NA
"S & A Pharm","S & A Pharmacy",4.9,"HJ7W+MF","251 Northolt Rd, South Harrow, Harrow HA2 8H",NA,NA
"Sudbury Chem","Sudbury Chemist",4.9,"HM4G+XR","879 Harrow Rd, Wembley HA0 2R",NA,NA
"Shivakem Pharm","Shivakem Pharmacy",5,"HM6J+V5","Shivakem Pharmacy, 12A Court Parade, North Wembley, Wembley HA0 3H",NA,NA
"ASDA Pharm","ASDA Pharmacy",3.1,"HP7F+VP","Forty Ln, Wembley HA9 9E",NA,NA
"Health First Pharm","Health First Pharmacy",3.7,"HP68+QM","95 Wembley Park Dr, London HA9 8H",NA,NA
"Overton & Pickup Pharm","Overton & Pickup Pharmacy",2.1,"HMPV+QG","Kenton Park Parade, Kenton Rd, Harrow HA3 8D",NA,NA
"Gor Pharm","Gor Pharmacy",2.8,"HJW9+7Q","Pinn Medical Centre, Love Ln, Pinner HA5 3E",NA,NA
"Pharmacy Bea","Pharmacy Beauty",5,"HRM2+54","21 Temple Fortune Parade, London NW11 0Q",NA,NA
"Avviro Pharm","Avviro Pharmacy",5,"HJ7X+W7","Pentax House, S Hill Ave, Harrow HA2 0D",NA,NA
"Tanna Pharm","Tanna Pharmacy",3.8,"JJ5G+55","320 Uxbridge Rd, Pinner HA5 4H",NA,NA
"Wellcare PHARM","Wellcare PHARMACY",NA,"HJ2X+HW","44 Oldfields Circus, Northolt UB5 4R",NA,NA
"Wellcare PHARM","Wellcare PHARMACY",NA,"HJ2X+HW","44 Oldfields Circus, Northolt UB5 4R",NA,NA
"Boots Pharm","Boots Pharmacy",NA,"HMV7+XX","68 High St, Harrow HA3 7A",NA,NA
"Angies Chemist & Travel Cli","Angies Chemist & Travel Clinic",4.9,"HJV9+H6","3 High St, Pinner HA5 5P",NA,NA
"Wellcare Pharm","Wellcare Pharmacy",4.7,"HPPC+6V","Alpha House, 552 Kingsbury Rd, London NW9 9H",NA,NA
"Boots Pharm","Boots Pharmacy",NA,"HMJ7+5G","9, St Anns Shopping Centre, 10 St. Anns Rd, Harrow HA1 1A",NA,NA
"M Gokani Chem","M Gokani Chemist",4.3,"GJVG+XM","32 Church Rd, Northolt UB5 5A",NA,NA
"Carters Chemist and Travel Clinic (Pinn","Carters Chemist and Travel Clinic (Pinner)",4.9,"HJV8+WM","24 Bridge St, Pinner HA5 3J",NA,NA
"Osbon Pharm","Osbon Pharmacy",3,"HPXC+4J","39, South Parade, Mollison Way, Edgware HA8 5Q",NA,NA
"Optipharm Pharmacy & Optici","Optipharm Pharmacy & Opticians",2.7,"HP7C+MQ","29 Bridge Rd, Wembley Park, Wembley HA9 9A",NA,NA
"Monks Chem","Monks Chemist",4.3,"GPWG+Q5","70 Harrow Rd, Wembley HA9 6P",NA,NA
"Kuramed Pharm","Kuramed Pharmacy",NA,"HMX6+34","Unit 5, Winsor And Newton Building, Whitefriars Ave, Harrow HA3 5R",NA,NA
"Village Pharm","Village Pharmacy",4.9,"JJ5G+7P","272 Uxbridge Rd, Pinner HA5 4H",NA,NA
"Jade Pharmacy (Burnt O","Jade Pharmacy (Burnt Oak)",4.2,"JP3P+5J","6 Silkstream Rd, Burnt Oak, Edgware HA8 0E",NA,NA
"Sumer Pharm","Sumer Pharmacy",4.4,"GRF4+3C","340 Harrow Rd, London W9 2H",NA,NA
"Well Pharm","Well Pharmacy",3.6,"HPFQ+G2","Kingsbury, 175 Church Ln, London NW9 8J",NA,NA
"Leigh Pharmacy & Travel Cli","Leigh Pharmacy & Travel Clinic",3.8,"HPGQ+24","278 Church Ln, London NW9 8L",NA,NA
"British Chem","British Chemist",4.3,"HPHP+QQ","381 Church Ln, Kingsbury Green, London NW9 8J",NA,NA
"Wellcare Pharm","Wellcare Pharmacy",3.9,"HJ2J+H6","5 Haydock Grn, Northolt UB5 4A",NA,NA
"Judds Chemists ","Judds Chemists Ltd",4.5,"HPQM+XP","343B Stag Ln, London NW9 9A",NA,NA
"NHS Pharm","NHS Pharmacy",3,"GQWC+RG","High Rd, London NW10 2S",NA,NA
"NHS Pharm","NHS Pharmacy",3,"GQWC+RG","High Rd, London NW10 2S",NA,NA
"Shilun's ","Shilun's Ltd",3.9,"HM2J+P9","3, The Parade, Sudbury Heights Ave, Greenford UB6 0L",NA,NA
"Burnt Oak Pharm","Burnt Oak Pharmacy",4.1,"JP2J+9Q","73 Burnt Oak Broadway, Burnt Oak, Edgware HA8 5E",NA,NA
"Fairview Pharmacy - Travel & Earwax Removal & Weight Loss Cli","Fairview Pharmacy - Travel & Earwax Removal & Weight Loss Clinic",4.8,"JP4G+3M","295 Burnt Oak Broadway, Burnt Oak, Edgware HA8 5E",NA,NA
"ASDA Pharm","ASDA Pharmacy",2.6,"HPVQ+JH","off Capitol Way, Edgware Rd, London NW9 0A",NA,NA
"Anytime Pharm","Anytime Pharmacy",1,"HM6J+V5","12A Court Parade, North Wembley, Wembley HA0 3H",NA,NA
"SmartCare Pharmacy ","SmartCare Pharmacy Ltd",4.2,NA,"020 8903 406",45.8097528,14.7425657445546
"BRIGHT HEALTH PHARM","BRIGHT HEALTH PHARMACY",4.7,"HM26+98","1318 Greenford Rd, Greenford UB6 0H",NA,NA
"ProCare Pharmacy - Colindale & Hendon Travel Clinic & Approved Yellow Fever Cen","ProCare Pharmacy - Colindale & Hendon Travel Clinic & Approved Yellow Fever Centre",4.8,"Amigable","11, Sheaveshill Parade, Sheaveshill Ave, London NW9 6R",NA,NA
"Boots Pharm","Boots Pharmacy",3.5,"HJ2X+HX","47a, 47B Oldfields Circus, Northolt UB5 4R",NA,NA
"Crystal Pharm","Crystal Pharmacy",3.8,"HM2V+2J","116 Chaplin Rd, Wembley HA0 4U",NA,NA
"Jade Pharmacy (Wembley) & Travel Cli","Jade Pharmacy (Wembley) & Travel Clinic",4.4,"GPV3+V5","204 Ealing Rd, Wembley HA0 4Q",NA,NA
"Canons Pharm","Canons Pharmacy",4.5,"JP53+2H","11, Station Parade, Whitchurch Ln, Edgware HA8 6R",NA,NA
"Boots Pharm","Boots Pharmacy",3.4,"HJH2+7G","171 Field End Rd, Pinner HA5 1Q",NA,NA
"Jade Pharmacy and Travel Clinic (Edgware) - formerly Avenue Pharm","Jade Pharmacy and Travel Clinic (Edgware) - formerly Avenue Pharmacy",4.7,"JP8F+5M","189 Station Rd, Edgware HA8 7J",NA,NA
"Dale Pharmacy Covid 19 Vaccine Walk","Dale Pharmacy Covid 19 Vaccine Walk In",NA,"JJ9M+PV","Grim's Dyke Golf Club, Oxhey Ln, Watford, Pinner HA5 4A",NA,NA
"The Hyde Pharm","The Hyde Pharmacy",3.8,"Amigable","213 Edgware Rd, London NW9 6L",NA,NA
"Boots Pharm","Boots Pharmacy",5,"HP33+7V","500 High Rd, Wembley HA9 7B",NA,NA
"Goddard Veterinary Group, Harrow We","Goddard Veterinary Group, Harrow Weald",4.3,"JM36+X5","334 High Rd, Harrow HA3 6H",NA,NA
"Wembley Pharm","Wembley Pharmacy",4.3,"GPR2+FV","Middlesex House, 183 Ealing Rd, Wembley HA0 4L",NA,NA
"Boots Pharm","Boots Pharmacy",NA,"HPPF+54","485 Kingsbury Rd, London NW9 9E",NA,NA
"S & S Chemi","S & S Chemists",4.6,"GPRQ+CJ","23 Hillside, London NW10 8L",NA,NA
"Click Health Pharmacy (West London) | Delivering Medicine in Minu","Click Health Pharmacy (West London) | Delivering Medicine in Minutes",4.3,"GMPM+HV","Sabichi House, London UB6 7J",NA,NA
"Click Health Pharmacy (West London) | Delivering Medicine in Minu","Click Health Pharmacy (West London) | Delivering Medicine in Minutes",4.3,"GMPM+HV","Sabichi House, London UB6 7J",NA,NA
"Doshi Pharm","Doshi Pharmacy",4.7,"JP2J+R6","127 Burnt Oak Broadway, Burnt Oak, Edgware HA8 5E",NA,NA
"Medic","Medico2u",5,"medico2u.co.uk","medico2u.co.u",NA,NA
"View Pharm ","View Pharm Ltd",NA,"020","6 Tudor Enterprise Park, Tudor Road, Harrow HA3 5J",NA,NA
"View Pharm ","View Pharm Ltd",NA,"020","6 Tudor Enterprise Park, Tudor Road, Harrow HA3 5J",NA,NA
"Day Lewis Pharmacy Broad Str","Day Lewis Pharmacy Broad Street",2.8,"G5P2+3G","151, Broad St, Dagenham RM10 9H",NA,NA
"Clockhouse Pharmacy & Travel Cli","Clockhouse Pharmacy & Travel Clinic",3.8,"H5X7+R6","5 Clockhouse Ln, Romford RM5 3P",NA,NA
"H B S Pharm","H B S Pharmacy",1,"G58Q+CJ","Ferry Lane Industrial Estate, Lamson Rd, Rainham RM13 9Y",NA,NA
"Maylands Pharmacy & Travel Cli","Maylands Pharmacy & Travel Clinic",4.1,"H53R+48","300 Upper Rainham Rd, Hornchurch RM12 4E",NA,NA
"Asvacare Pharm","Asvacare Pharmacy",3.5,"H58G+49","197 Rush Green Rd, Romford RM7 0J",NA,NA
"Chemist2H","Chemist2Home",3.2,"H6X9+6X","Unit 9, Guardian Business Centre, Faringdon Ave, Romford RM3 8F",NA,NA
"Park Lane Pharm","Park Lane Pharmacy",4.6,"H5CR+QJ","1 Park Ln, Hornchurch, Romford RM11 1B",NA,NA
"Mim Pharm","Mim Pharmacy",4,"H5JG+HX","118 North St, Romford RM1 1D",NA,NA
"Day Lewis Pharmacy Collier ","Day Lewis Pharmacy Collier Row",4.2,"H5Q9+X6","52 Collier Row Ln, Romford RM5 3B",NA,NA
"Rise Park Pharm","Rise Park Pharmacy",4,"H5RJ+X9","173 Rise Park Parade, Romford RM1 4N",NA,NA
"Ardleigh Green Pharmacy + Travel Clinic + Yellow fever cen","Ardleigh Green Pharmacy + Travel Clinic + Yellow fever centre",2.9,"H6MC+98","100 Ardleigh Grn Rd, Hornchurch RM11 2L",NA,NA
"Day Lewis Pharmacy Harold H","Day Lewis Pharmacy Harold Hill",3.1,"J64F+HW","Day Lewis Pharmacy, Gooshays Dr, Romford RM3 9L",NA,NA
"Vantage Pharm","Vantage Pharmacy",NA,"G58W+MH","Wennington Rd, Rainham RM13 9T",NA,NA
"Crescent Pharm","Crescent Pharmacy",3.1,"H6W6+2X","65 Masefield Cres, Romford RM3 7P",NA,NA
"Shadfor","Shadforths",4.4,"H6F3+P7","266 Brentwood Rd, Hornchurch, Romford RM2 5S",NA,NA
"Britannia Pharm","Britannia Pharmacy",3.7,"H4CQ+V7","169 High Rd, Romford RM6 6N",NA,NA
"Britcrown Pharm","Britcrown Pharmacy",2.9,"H6P2+F2","5 Balgores Ln, Romford RM2 5J",NA,NA
"Brooks Pharm","Brooks Pharmacy",3.5,"H5X7+PH","12 Chase Cross Rd, Romford RM5 3P",NA,NA
"Pharmac","Pharmacare",4.3,"H672+XM","164 Hornchurch Rd, Hornchurch RM11 1Q",NA,NA
"Supercare Pharm","Supercare Pharmacy",2.7,"H4CR+Q4","200 High Rd, Romford RM6 6L",NA,NA
"Elm Park Pharm","Elm Park Pharmacy",4.5,"H52X+8M","212 Elm Park Ave, Hornchurch RM12 4S",NA,NA
"Britcrown pharm","Britcrown pharmacy",3,"H66H+5G","31 Upminster Rd, Hornchurch RM11 3U",NA,NA
"Boots Pharm","Boots Pharmacy",4.4,"J64M+2X","122 Petersfield Ave, Romford RM3 9P",NA,NA
"Day Lewis Pharmacy Dagenham, Royal Par","Day Lewis Pharmacy Dagenham, Royal Parade",3.8,"G5Q5+X4","2, Royal Parade, Church St, Dagenham RM10 9X",NA,NA
"BenCrest Chemist + Travel Clinic + Yellow Fever Cen","BenCrest Chemist + Travel Clinic + Yellow Fever Centre",3.7,"H59V+Q7","69 Park Ln, Hornchurch RM11 1B",NA,NA
"Boots Pharm","Boots Pharmacy",4.6,"H639+RW","205 Station Ln, Hornchurch RM12 6L",NA,NA
"Day Lewis Pharmacy Elm P","Day Lewis Pharmacy Elm Park",4.8,"G5XX+9Q","Elm Park, 6 Station Parade, Hornchurch RM12 5A",NA,NA
"Day Lewis Pharmacy Rainham, Mungo P","Day Lewis Pharmacy Rainham, Mungo Park",4,"G5RR+5W","109 Mungo Park Rd, Rainham RM13 7P",NA,NA
"",NA,5,"H5X7+X9","21, 23 Clockhouse Ln, Romford RM5 3P",NA,NA
"Well Pharm","Well Pharmacy",3.5,"H6VM+96","7 Station Rd, Romford RM3 0B",NA,NA
"",NA,4.5,"H523+JC","217 Oxlow Ln, Dagenham RM10 7Y",NA,NA
"Day Lewis Pharmacy Rainham, Rainham R","Day Lewis Pharmacy Rainham, Rainham Road",2.5,"G5HR+92","113 Rainham Rd, Rainham RM13 7Q",NA,NA
"Britannia Pharm","Britannia Pharmacy",4.3,"H562+F5","420 Wood Ln, Dagenham RM10 7F",NA,NA
"Specialist Pharm","Specialist Pharmacy",4.7,"G5W9+W9","Londoneast-UK Business & Technical Park, Yew Tree Avenue, Dagenham, London RM10 7F",NA,NA
"",NA,3.4,"J649+HF","12 Farnham Rd, Romford RM3 8D",NA,NA
"Bo","Boots",4.1,"H5GJ+97","7 The Brewery Walk, Romford RM1 1A",NA,NA
"Day Lewis Pharmacy Cran","Day Lewis Pharmacy Cranham",4.7,"H799+F6","143 Avon Rd, Upminster RM14 1R",NA,NA
"Day Lewis Pharmacy Cran","Day Lewis Pharmacy Cranham",4.7,"H799+F6","143 Avon Rd, Upminster RM14 1R",NA,NA
"Tesco Pharm","Tesco Pharmacy",1.8,"H6V9+HH","Bryant Ave, Romford RM3 0L",NA,NA
"Boots Pharm","Boots Pharmacy",5,"H5GJ+93","7 The Brewery Walk, Romford RM1 1A",NA,NA
"Burdess ","Burdess W H",3.8,"H5M7+2W","178 Mawney Rd, Romford RM7 8B",NA,NA
"",NA,4.5,"H63W+8W","36 Corbets Tey Rd, Upminster RM14 2A",NA,NA
"Panchem Pharm","Panchem Pharmacy",4.6,"H742+C8","160 St. Marys Ln, Upminster RM14 3B",NA,NA
"Well Pharm","Well Pharmacy",2,"H4MP+Q5","107 Rose Ln, Romford RM6 5N",NA,NA
"Tesco Pharm","Tesco Pharmacy",4.7,"H58R+8M","300 Hornchurch Rd, Hornchurch RM11 1P",NA,NA
"Day Lewis Pharmacy Dagenham, Bead","Day Lewis Pharmacy Dagenham, Beadles",2.6,"G5V8+29","7, Beadles Parade, Rainham Rd S, Dagenham RM10 8Y",NA,NA
"Bows Chem","Bows Chemist",3.5,"G6C5+C4","329 Upminster Rd N, Rainham RM13 9J",NA,NA
"Orchard Village Pharm","Orchard Village Pharmacy",3.2,"G5H9+9X","Unit 3, Mick Fury House, Perry Cl, Rainham RM13 8T",NA,NA
"Chansons Pharmacy - Alphega Pharm","Chansons Pharmacy - Alphega Pharmacy",4.6,"G692+X9","6 Crown Parade, Uptminster Road South, Rainham RM13 9B",NA,NA
"Chansons Pharmacy - Alphega Pharm","Chansons Pharmacy - Alphega Pharmacy",4.6,"G692+X9","6 Crown Parade, Uptminster Road South, Rainham RM13 9B",NA,NA
"Sainsbur","Sainsbury's",4,"H679+68","105 High St, Hornchurch RM11 1T",NA,NA
"Sainsbur","Sainsbury's",4,"H679+68","105 High St, Hornchurch RM11 1T",NA,NA
"Kry-Ba Pharm","Kry-Ba Pharmacy",2.9,"G4JW+VF","21 Goresbrook Rd., Dagenham RM9 6X",NA,NA
"Talati Pharm","Talati Pharmacy",3.2,"G4VX+36","282 Heathway, Essex, Dagenham RM10 8Q",NA,NA
"LloydsPharm","LloydsPharmacy",2.1,"H43R+QV","281 Wood Ln, Dagenham RM8 3N",NA,NA
"Govani Chem","Govani Chemist",4.4,"H752+94","64 Station Rd, Upminster RM14 2T",NA,NA
"South Road Pharm","South Road Pharmacy",4.5,"Amigable","1 South Rd, South Ockendon RM15 6N",NA,NA
"ASDA Pharm","ASDA Pharmacy",2.7,"G4JV+22","Merrielands Cres, Dagenham RM9 6S",NA,NA
"Boots Pharm","Boots Pharmacy",4,"H5GM+R5","12 The Liberty, Romford RM1 3R",NA,NA
"Waller Pharm","Waller Pharmacy",4.5,"G4RX+V2","279 Heathway, Dagenham RM9 5A",NA,NA
"Nuxley Village Pharm","Nuxley Village Pharmacy",4.8,"F4MW+8X","7 Nuxley Rd, Belvedere DA17 5J",NA,NA
"Asda Dagenham Superst","Asda Dagenham Superstore",3.6,"G4JR+4M","Merrielands Cres, Dagenham RM9 6S",NA,NA
"Heathway Pharmacy & Travel Clinic(Including Yellow Fever,Hajj and Umrah Vacci","Heathway Pharmacy & Travel Clinic(Including Yellow Fever,Hajj and Umrah Vaccine)",4.5,"G5P2+2H","151, Broad St, Dagenham RM10 9H",NA,NA
"Tesco Pharm","Tesco Pharmacy",2.9,"G5CR+27","Bridge Rd, Rainham RM13 9Y",NA,NA
"Wellbeing Pharmacy & Travel Cli","Wellbeing Pharmacy & Travel Clinic",4.6,"H4CH+7P","1207 High Rd, Romford RM6 4A",NA,NA
"MedPlus Pharmacy & Travel Clinic (CITY D","MedPlus Pharmacy & Travel Clinic (CITY DOC)",5,"H882+VH","Unit 5, Upminster Trading Park, Warley St, Great Warley, Upminster RM14 3P",NA,NA
"Brooks Pharmacy Wood L","Brooks Pharmacy Wood Lane",3,"H43R+QV","281 Wood Ln, Dagenham RM8 3N",NA,NA
"Brooks Pharmacy Wood L","Brooks Pharmacy Wood Lane",3,"H43R+QV","281 Wood Ln, Dagenham RM8 3N",NA,NA
"Boots Pharm","Boots Pharmacy",NA,"H669+XJ","126 High St, Hornchurch RM12 4U",NA,NA
"Dave's Chem","Dave's Chemist",4.1,"F6PM+GQ","Purfleet Care Centre, Tank Hill Rd, Purfleet-on-Thames RM19 1S",NA,NA
"Stelling Road Chemist Now Grand Health Pharm","Stelling Road Chemist Now Grand Health Pharmacy",4.8,"F5FC+2G","38 Stelling Rd, Erith DA8 3J",NA,NA
"Andrew B","Andrew Bass",4.4,"H46W+9M","1148 Green Ln, Dagenham RM8 1B",NA,NA
"David Lewis Pharm","David Lewis Pharmacy",3.9,"H42J+H2","16 Porters Ave, Dagenham RM8 2A",NA,NA
"Williams Dispensing Chem","Williams Dispensing Chemist",4.2,"G58W+MH","139A Wennington Rd, Rainham RM13 9T",NA,NA
"Valence Pharm","Valence Pharmacy",4.5,"H45J+H7","453 Becontree Ave, Dagenham RM8 3U",NA,NA
"Hemants Pharm","Hemants Pharmacy",4.2,"G75J+QW","10 Derwent Parade, South Ockendon RM15 5E",NA,NA
"Hemants Pharm","Hemants Pharmacy",4.2,"G75J+QW","10 Derwent Parade, South Ockendon RM15 5E",NA,NA
"Govani ","Govani Ltd",4.4,"H778+2G","87 Front Ln, Upminster RM14 1X",NA,NA
"Hedgemans Pharm","Hedgemans Pharmacy",3.9,"G4QH+J8","438 Hedgemans Rd, Dagenham RM9 6B",NA,NA
"Boots Pharm","Boots Pharmacy",5,"H63X+J8","59 Corbets Tey Rd, Upminster RM14 2A",NA,NA
"",NA,2.4,"H53R+57","300 Upper Rainham Rd, Hornchurch RM12 4E",NA,NA
"Well Pharm","Well Pharmacy",3.3,"F59R+87","41 Forest Rd, Slade Green, Erith DA8 2N",NA,NA
"J G Harris","J G Harrisons",3.3,"F5HH+XX","1 Town Square, Erith DA8 1R",NA,NA
"Boots Pharm","Boots Pharmacy",3,"G4RX+HG","17, The Mall, Heathway, Dagenham RM10 8R",NA,NA
"Day Lewis Pharmacy Er","Day Lewis Pharmacy Erith",3.7,"F5F7+G4","251 Bexley Rd, Erith DA8 3E",NA,NA
"Cordeve Dispensing Chem","Cordeve Dispensing Chemist",3,"H4FG+66","70 Chadwell Heath Ln, Romford RM6 4N",NA,NA
"Bo","Boots",3.3,"H66C+MG","171 High St, Hornchurch RM11 3X",NA,NA
"Knight","Knightons",4.3,"F4MW+3F","36 Nuxley Rd, Belvedere DA17 5J",NA,NA
"Lawton Pharmacy - Travel Cli","Lawton Pharmacy - Travel Clinic",3.3,"GGMW+7Q","8/9 Crescent Parade, Uxbridge Rd, Uxbridge UB10 0L",NA,NA
"",NA,3.6,"GHR2+G5","4 Sutton Ct Rd, Uxbridge UB10 9H",NA,NA
"",NA,3.8,"FGC6+HR","Terminal 5, Unit 3044 Terminal 5 Landside, Airport, Hounslow TW6 2R",NA,NA
"Click Health Pharmacy (West London) | Delivering Medicine in Minu","Click Health Pharmacy (West London) | Delivering Medicine in Minutes",4.3,"GMPM+HV","Sabichi House, London UB6 7J",NA,NA
"Eclipse Pharmacy - Hilling","Eclipse Pharmacy - Hillingdon",4,"HH22+CG","380 Long Ln, Uxbridge UB10 9P",NA,NA
"Oakleigh Pharmacy & Travel Cli","Oakleigh Pharmacy & Travel Clinic",4.6,"GHH3+VJ","Uxbridge Rd, Hillingdon, London UB10 0L",NA,NA
"Chem","Chemist",NA,"GH9Q+GR","Hayes UB4 0S",NA,NA
"Hillingdon Hospi","Hillingdon Hospital",2.5,"GGGQ+3F","Pield Heath Rd, Uxbridge UB8 3N",NA,NA
"Puri Pharmacy - Earwax Removal Clinic, NHS and Private Consultation & Prescribing Servi","Puri Pharmacy - Earwax Removal Clinic, NHS and Private Consultation & Prescribing Services",4.9,"GHV6+V2","165 Ryefield Ave, Uxbridge UB10 9D",NA,NA
"Adell's Chemist <U+00B7> Travel Clinic <U+00B7> Private GP <U+00B7> Physiother","Adell's Chemist <U+00B7> Travel Clinic <U+00B7> Private GP <U+00B7> Physiotherapy",4.3,"HH22+HG","392 Long Ln, Uxbridge UB10 9P",NA,NA
"Hayes End Pharmacy & Travel Clinic (Yellow Fever Cent","Hayes End Pharmacy & Travel Clinic (Yellow Fever Centre)",3.7,"GHG8+5C","1266 Uxbridge Rd, Hayes UB4 8J",NA,NA
"Orchards Pharmacy Ltd, West Dray","Orchards Pharmacy Ltd, West Drayton",4.3,"Amigable","6 Laurel Ln, West Drayton UB7 7T",NA,NA
"Southall Pharmacy & Travel Clinic (Previously Shah Pharma","Southall Pharmacy & Travel Clinic (Previously Shah Pharmacy)",4.7,"GJ8H+MH","13 North Parade, North Road, Southall UB1 2L",NA,NA
"Tesco Expr","Tesco Express",3.7,"GG3M+6C","223 Station Rd, West Drayton UB7 7J",NA,NA
"Garners Ickenham Pharmacy & Travel Cli","Garners Ickenham Pharmacy & Travel Clinic",4.8,"HH74+P7","1 Swakeleys Rd, London UB10 8D",NA,NA
"Touchwood Pharm","Touchwood Pharmacy",3.8,"GJP4+48","493 Yeading Ln, Northolt UB5 6L",NA,NA
"Howletts Pharm","Howletts Pharmacy",4.3,"HHP6+24","81 Howletts Ln, Ruislip HA4 7Y",NA,NA
"Hayes Town Pharmacy ","Hayes Town Pharmacy Ltd",4.1,"GH5M+45","11 Coldharbour Ln, Hayes Town, Hayes UB3 3E",NA,NA
"Daya Pharm","Daya Pharmacy",4.2,"GHCP+63","750 Uxbridge Rd, Hayes UB4 0R",NA,NA
"Anmol Pharm","Anmol Pharmacy",4,"GJ7G+HW","97 North Rd., Southall UB1 2J",NA,NA
"Pickup Pharmacy ","Pickup Pharmacy Ltd",3.3,"GH6P+FR","21, Broadway Parade, Coldharbour Ln, Hayes UB3 3H",NA,NA
"Pickup Pharmacy ","Pickup Pharmacy Ltd",3.3,"GH6P+FR","21, Broadway Parade, Coldharbour Ln, Hayes UB3 3H",NA,NA
"Joshi Pharm","Joshi Pharmacy",4.7,"GHC3+QH","315 Harlington Rd, Uxbridge UB8 3J",NA,NA
"Eastcote Pharmacy & Travel Cli","Eastcote Pharmacy & Travel Clinic",3.6,"HJH2+W6","109, 111 Field End Rd, Pinner HA5 1Q",NA,NA
"McParland H A ","McParland H A Ltd",3.7,"GH9Q+HR","522 Uxbridge Rd, Hayes UB4 0S",NA,NA
"Ravenor Pharmacy (Weight Loss & Blood Pressure Clin","Ravenor Pharmacy (Weight Loss & Blood Pressure Clinic)",4.4,"GJHW+F2","70 The Broadway, Greenford UB6 9Q",NA,NA
"M Gokani Chem","M Gokani Chemist",4.3,"GJVG+XM","32 Church Rd, Northolt UB5 5A",NA,NA
"Flora Fountain Pharm","Flora Fountain Pharmacy",4.6,"GGVF+X5","283 High St, Uxbridge UB8 1L",NA,NA
"Vantage Pharm","Vantage Pharmacy",4.3,"GHJH+VR","252 Kingshill Ave, Hayes UB4 8B",NA,NA
"Kasmani Pharmacy & Travel Vaccination Cli","Kasmani Pharmacy & Travel Vaccination Clinic",3.9,"GH2G+9C","6, Northfield Parade, Station Rd, Hayes UB3 4J",NA,NA
"Medics Pharm","Medics Pharmacy",4.3,"FHX9+5X","11 Dawley Rd, Hayes UB3 1L",NA,NA
"Vantage Chem","Vantage Chemist",4.7,"GH9C+3W","Park Parade, Barra Hall Rd, Hayes UB3 2N",NA,NA
"Eclipse Pharm","Eclipse Pharmacy",3.9,"GHCM+9M","788 Uxbridge Rd, Hayes UB4 0R",NA,NA
"The Village Pharmacy & Travel Vaccination Cli","The Village Pharmacy & Travel Vaccination Clinic",4.6,"FHP7+XG","220 High Street Harlington, Harlington, Hayes UB3 5D",NA,NA
"Lansbury Pharm","Lansbury Pharmacy",4.7,"GHGJ+GC","102 Lansbury Dr, Hayes UB4 8S",NA,NA
"Ruislip Manor Pharmacy , Travel Clinic & Weight Loss Cli","Ruislip Manor Pharmacy , Travel Clinic & Weight Loss Clinic",4.8,"HHCQ+V5","53 Victoria Rd, Ruislip HA4 9B",NA,NA
"Boots Pharm","Boots Pharmacy",3.8,"GG5G+J8","16 Station Rd, West Drayton UB7 7B",NA,NA
"Brunel Pharm","Brunel Pharmacy",3.9,"Amigable","Uxbridge UB8 3P",NA,NA
"Sharmans Pharmacy and Travel Cli","Sharmans Pharmacy and Travel Clinic",4.7,"JH6F+JV","3, 5 Clive Parade, Northwood HA6 2Q",NA,NA
"Nuchem Pharmacy + Travel Clinic Ha","Nuchem Pharmacy + Travel Clinic Hayes",4.8,"GH4M+X4","24 Coldharbour Ln, Hayes Town, Hayes UB3 3E",NA,NA
"Phillips Pharm","Phillips Pharmacy",3.2,"GG7H+33","84 High St, West Drayton UB7 7D",NA,NA
"Tesco Pharm","Tesco Pharmacy",2.8,"GG8F+64","High St, West Drayton UB7 7F",NA,NA
"Mango Pharmacy (travel clinic, ear-microsuction, private blood testi","Mango Pharmacy (travel clinic, ear-microsuction, private blood testing)",4.5,"GGG9+M4","3, The Parade, High St, Cowley, Uxbridge, Cowley UB8 2E",NA,NA
"Alpha Chem","Alpha Chemist",4.5,"GJP6+X7","480 Church Rd, Northolt UB5 5A",NA,NA
"HA McParl","HA McParland",3.9,"GGQ9+M9","120 Cowley Rd, Uxbridge UB8 2L",NA,NA
"Tesco Pharm","Tesco Pharmacy",2.4,"GJF7+VX","Glencoe Rd, Hayes UB4 9S",NA,NA
"Carewell Chem","Carewell Chemist",4.7,"GG3R+VV","10 Mulberry Parade, West Drayton UB7 9A",NA,NA
"ROXANNES PHARM","ROXANNES PHARMACY",4,"GJHV+8V","51 The Broadway, Greenford UB6 9P",NA,NA
"Nu-Ways Pharm","Nu-Ways Pharmacy",3.2,"HH7P+2F","292 W End Rd, Ruislip HA4 6L",NA,NA
"",NA,3.9,"GJ9F+GQ","185 Lady Margaret Rd, Southall UB1 2P",NA,NA
"Winchester Pharm","Winchester Pharmacy",4.2,"GG4F+7X","64 Swan Rd, West Drayton UB7 7J",NA,NA
"Chimsons Chem","Chimsons Chemist",4.5,"HHFP+4X","29 Victoria Rd, Ruislip HA4 9A",NA,NA
"Boots Pharm","Boots Pharmacy",3.1,"HJ69+9H","716 Field End Rd, Ruislip HA4 0Q",NA,NA
"Ariana Pharm","Ariana Pharmacy",3.9,"GJHX+98","472 Greenford Rd, Greenford UB6 8S",NA,NA
"Northolt Pharm","Northolt Pharmacy",3.1,"GJJF+JG","Taywood Rd, Northolt UB5 6W",NA,NA
"Chana Chemist of South","Chana Chemist of Southall",4.1,"GJ5F+Q6","52 South Rd, Southall UB1 1R",NA,NA
"Ashworths Chem","Ashworths Chemist",3.9,"HHFF+XQ","64 High St, Ruislip HA4 7A",NA,NA
"Dunn's Pharmacy - Alphega Pharm","Dunn's Pharmacy - Alphega Pharmacy",3.9,"FHHQ+QG","740 Bath Rd, Cranford, Hounslow TW5 9T",NA,NA
"Boots Pharm","Boots Pharmacy",2.7,"GH4J+C7","28, 30 Station Rd, Hayes UB3 4D",NA,NA
"Kings Pharmacy Ear Wax Removal and Yellow Fever Travel Cli","Kings Pharmacy Ear Wax Removal and Yellow Fever Travel Clinic",5,"GJ9W+H6","50 Greenford Rd, Greenford UB6 9A",NA,NA
"Kings Pharm","Kings Pharmacy",4.1,"HJ6G+PP","336 Eastcote Ln, Harrow HA2 9A",NA,NA
"",NA,3.9,"HHCQ+Q6","63 Victoria Rd, Ruislip HA4 9B",NA,NA
"Boots Pharm","Boots Pharmacy",4.2,"HGH2+R3","16 Station Parade, Denham, Uxbridge UB9 5E",NA,NA
"Chana Health - Pharmacy & Cli","Chana Health - Pharmacy & Clinic",4.7,"GJ6G+FC","33 High St, Southall UB1 3H",NA,NA
"Winchester Pharmacy, Icken","Winchester Pharmacy, Ickenham",4.5,"Amigable","79 Swakeleys Rd, Ickenham, Uxbridge UB10 8D",NA,NA
"Tesco Superst","Tesco Superstore",3.8,"GG8F+63","High St, West Drayton UB7 7F",NA,NA
"",NA,5,"GH4J+P9","2/8 Station Rd, Hayes UB3 4D",NA,NA
"",NA,3.4,"HJH2+7G","171 Field End Rd, Pinner HA5 1Q",NA,NA
"",NA,4.5,"GJ77+23","227 The Broadway, Southall UB1 1N",NA,NA
"Ch","Chana",4,"GJFP+R6","251 Allenby Rd, Southall UB1 2H",NA,NA
"Queens Pharm","Queens Pharmacy",3.5,"GJ6C+GG","61 The Broadway, Southall UB1 1J",NA,NA
"Wellcare Pharm","Wellcare Pharmacy",3.9,"HJ2J+H6","5 Haydock Grn, Northolt UB5 4A",NA,NA
"Boots Pharm","Boots Pharmacy",2,"HJH2+P8","123 Field End Rd, Pinner HA5 1Q",NA,NA
"Health Pharmacy Blood Testing Cli","Health Pharmacy Blood Testing Clinic",4.6,"Amigable","394 Rayners Ln, Rayners Lane, Harrow, Pinner HA5 5D",NA,NA
"Tesco Pharm","Tesco Pharmacy",3.9,"FHXR+JV","Bullsbridge Industrial Estate, Hayes Rd, Hounslow, Southall UB2 5N",NA,NA
"Sherry's Chem","Sherry's Chemist",4.7,"GJ5F+V8","48 South Rd, Southall UB1 1R",NA,NA
"Puri Pharmacy - Earwax Removal Clinic, NHS and Private Consultation & Prescribing Servi","Puri Pharmacy - Earwax Removal Clinic, NHS and Private Consultation & Prescribing Services",4.7,"GJ27+6P","39 Western Rd, Southall UB2 5H",NA,NA
"",NA,3,"GGWF+58","128 The Chimes Shopping Centre High Street, Uxbridge, Greater, London UB8 1G",NA,NA
"",NA,3.4,"GM57+HX","83 Uxbridge Rd, London W7 3S",NA,NA
"",NA,3.5,"GC8C+RF","Upton Lea Parade, 3 Wexham Rd, Slough SL2 5J",NA,NA
"Fountain Pharm","Fountain Pharmacy",3.8,"GJ28+W5","43 Featherstone Rd, Southall UB2 5A",NA,NA
"Superdrug Pharm","Superdrug Pharmacy",1,"HJH2+G8","143 Field End Rd, Pinner HA5 1Q",NA,NA
"Superdrug Pharm","Superdrug Pharmacy",1,"HJH2+G8","143 Field End Rd, Pinner HA5 1Q",NA,NA
"Hounslow East Pharmacy & Travel Vaccination Cen","Hounslow East Pharmacy & Travel Vaccination Centre",4.6,"FJFV+48","84 Kingsley Rd, Hounslow TW3 1Q",NA,NA
"Hayes Town Pharmacy ","Hayes Town Pharmacy Ltd",4.1,"GH5M+45","11 Coldharbour Ln, Hayes Town, Hayes UB3 3E",NA,NA
"Rana wo","Rana world",NA,"FJQJ+73","14 Biscoe Cl, Hounslow TW5 0U",NA,NA
"Shah ","Shah a H",2.8,"FJC8+RX","303 Bath Rd, Hounslow TW3 3D",NA,NA
"Riverside Pharm","Riverside Pharmacy",4.3,"FM9G+92","1 Shrewsbury Walk, Isleworth TW7 7D",NA,NA
"Pickup Pharmacy ","Pickup Pharmacy Ltd",3.3,"GH6P+FR","21, Broadway Parade, Coldharbour Ln, Hayes UB3 3H",NA,NA
"Westlake Pharmacy Servi","Westlake Pharmacy Services",5,"FJ7M+XP","Unit 8, Industrial Estate, Hounslow TW3 3U",NA,NA
"Asda Hounslow Superst","Asda Hounslow Superstore",3.9,"FJCQ+CH","Access from High Street off Kingsley Road and, Cecil Rd, Hounslow TW3 1J",NA,NA
"Maswell Park Pharmacy + Travel Cli","Maswell Park Pharmacy + Travel Clinic",4.8,"FJ7V+GC","6 Central Ave, Hounslow TW3 2Q",NA,NA
"Bo","Boots",4.1,"FJ9Q+FC","199 High St, Hounslow TW3 1B",NA,NA
"Shah Pharm","Shah Pharmacy",4.2,"FJF6+G5","382 Bath Rd, Hounslow TW4 7H",NA,NA
"Jade Pharmacy & Travel Cli","Jade Pharmacy & Travel Clinic",4,"FJMG+QV","176 Heston Rd, Heston, Hounslow TW5 0Q",NA,NA
"Herbert & Herbert Pharmacy & Travel Cli","Herbert & Herbert Pharmacy & Travel Clinic",4.5,"FJ8H+PV","106 Staines Rd, Hounslow TW3 3L",NA,NA
"Boots Pharm","Boots Pharmacy",3.8,"FGC6+HR","Terminal 5, Unit 3044 Terminal 5 Landside, Airport, Hounslow TW6 2R",NA,NA
"Jade Pharmacy & Travel Cli","Jade Pharmacy & Travel Clinic",4.3,"FJM9+8H","319 Vicarage Farm Rd, Hounslow TW5 0D",NA,NA
"Hounslow Pharm","Hounslow Pharmacy",4,"FJ9G+JR","115, 117 Bath Rd, Hounslow TW3 3B",NA,NA
"Bhogal Pharmacy & Travel Vaccination Cli","Bhogal Pharmacy & Travel Vaccination Clinic",4.9,"FJG8+P8","48 Vicarage Farm Rd, Hounslow TW5 0A",NA,NA
"ASDA Pharm","ASDA Pharmacy",2.6,"FJCQ+CG","Access from High Street off Kingsley Road and, Cecil Rd, Hounslow TW3 1J",NA,NA
"ASDA Pharm","ASDA Pharmacy",2.6,"FJCQ+CG","Access from High Street off Kingsley Road and, Cecil Rd, Hounslow TW3 1J",NA,NA
"",NA,2.6,"FJ9G+JR","Bath Road Pharmacy, 115-117 Bath Rd, Hounslow TW3 3B",NA,NA
"Medico Pharm","Medico Pharmacy",3.9,"FJG3+7W","2 Parklands Parade, Bath Rd, Hounslow TW5 9A",NA,NA
"Medico Pharm","Medico Pharmacy",3.9,"FJG3+7W","2 Parklands Parade, Bath Rd, Hounslow TW5 9A",NA,NA
"Amin Pharm","Amin Pharmacy",4.8,"FJCV+9V","",NA,NA
